{
"type": "FeatureCollection",
"name": "apolo_limite",
"crs": { "type": "name", "properties": { "name": "urn:ogc:def:crs:OGC:1.3:CRS84" } },
"features": [
{ "type": "Feature", "properties": { "c_ut": "020701", "dep": "LA PAZ", "prov": "Franz Tamayo", "mun": "Apolo", "n_ley": 0.0, "fecha_ley": null, "zona": "19", "bl_comli_m": "CSL_20/11/1967", "capital": "Apolo", "c_siot": "36", "tioc_aioc": null, "sup_ha": 1400000.0, "area2": 0.0 }, "geometry": { "type": "Polygon", "coordinates": [ [ [ -68.963715584999989, -13.950866853999967 ], [ -68.899871988999962, -13.97523995499995 ], [ -68.420523619999983, -14.183698584999936 ], [ -68.414487844999954, -14.180540310999953 ], [ -68.414754374999987, -14.177300620999967 ], [ -68.407493424999984, -14.169207055999944 ], [ -68.407213744999979, -14.163608568999967 ], [ -68.402166931999943, -14.162208561999931 ], [ -68.403312181999979, -14.155513195999957 ], [ -68.396637184999975, -14.15803226499998 ], [ -68.394202693999944, -14.151567146999987 ], [ -68.388127876999988, -14.149685817999972 ], [ -68.381722240999977, -14.143258279999944 ], [ -68.371326164999971, -14.143948968999959 ], [ -68.368099110999935, -14.140734941999938 ], [ -68.367622151999967, -14.135910991999943 ], [ -68.36459309199995, -14.132075468999981 ], [ -68.364750389999983, -14.128391880999963 ], [ -68.358881389999965, -14.123352668999935 ], [ -68.352196310999943, -14.118058750999984 ], [ -68.34851157199995, -14.116551681999972 ], [ -68.344567665999932, -14.117834757999951 ], [ -68.339672167999936, -14.115459075999988 ], [ -68.337822179999932, -14.108875437999934 ], [ -68.330253471999981, -14.113423607999945 ], [ -68.321752218999961, -14.10788579599995 ], [ -68.316752323999935, -14.107799897999937 ], [ -68.311692855999979, -14.095707307999939 ], [ -68.309401750999939, -14.094724738999961 ], [ -68.304157435999969, -14.097752522999942 ], [ -68.299902462999967, -14.104227812999957 ], [ -68.298091222999972, -14.100203667999956 ], [ -68.294708768999953, -14.09785184099997 ], [ -68.287112428999933, -14.097351052999946 ], [ -68.284517914999981, -14.104101275999938 ], [ -68.282123911, -14.105469656999965 ], [ -68.279004726999972, -14.103606401999972 ], [ -68.278709257999935, -14.100136859999969 ], [ -68.27393297499998, -14.099165643999974 ], [ -68.269936920999953, -14.103339874999959 ], [ -68.265163107999967, -14.101591035999954 ], [ -68.256322840999985, -14.106778835999936 ], [ -68.249655832999963, -14.103110106999967 ], [ -68.249749239999971, -14.112021206999952 ], [ -68.247787034999988, -14.112433711999923 ], [ -68.241489247999937, -14.108287478999962 ], [ -68.236524790999965, -14.108630615999971 ], [ -68.230373420999967, -14.115727689999977 ], [ -68.214596562999986, -14.124073152999934 ], [ -68.205913143999965, -14.136483759999969 ], [ -68.200277717999938, -14.135747437999958 ], [ -68.192159251999954, -14.144020976999961 ], [ -68.187284051999939, -14.153513227999953 ], [ -68.179340273999969, -14.157205952999961 ], [ -68.176704883999946, -14.164014458999938 ], [ -68.158310829999948, -14.175947045999974 ], [ -68.156269463999934, -14.171059981999964 ], [ -68.153869892999978, -14.170238212999942 ], [ -68.154174539999985, -14.167416607999938 ], [ -68.147517150999988, -14.164474682999987 ], [ -68.142046943999958, -14.155532662999979 ], [ -68.139111070999945, -14.153967290999963 ], [ -68.136282446999985, -14.156468831999968 ], [ -68.134413103999975, -14.162640875999946 ], [ -68.140917813999977, -14.169610893999959 ], [ -68.14360499199995, -14.17478743 ], [ -68.142478844999971, -14.176964994999942 ], [ -68.13723637399994, -14.177511140999965 ], [ -68.133188876999952, -14.175151872999951 ], [ -68.130178655999941, -14.177609605999978 ], [ -68.127786586999946, -14.183430905999954 ], [ -68.125136883999971, -14.183899664999963 ], [ -68.118192361999945, -14.179113972999964 ], [ -68.109879464999949, -14.179523391999973 ], [ -68.101890347999984, -14.172413060999927 ], [ -68.097177176999935, -14.173940639999953 ], [ -68.093012476999945, -14.179330993999937 ], [ -68.093616271999963, -14.181629659999949 ], [ -68.098109905999934, -14.18606715299995 ], [ -68.105885024999964, -14.185306908999959 ], [ -68.106184324999958, -14.190264396999968 ], [ -68.111131163999971, -14.191765889999948 ], [ -68.109372863999965, -14.196242100999937 ], [ -68.102374224999949, -14.200527669999927 ], [ -68.100998335999989, -14.199685283999946 ], [ -68.102177943999948, -14.195892303999935 ], [ -68.099508288999971, -14.194702520999952 ], [ -68.085665012999982, -14.194245081999954 ], [ -68.080807599999957, -14.197964072999975 ], [ -68.078093862999935, -14.20207992999997 ], [ -68.078584489999969, -14.210483283999956 ], [ -68.072450244, -14.225947097999939 ], [ -68.073976147999986, -14.231338281999964 ], [ -68.071953018, -14.233765382999941 ], [ -68.069334888999947, -14.23417870899994 ], [ -68.061307504999945, -14.227673986999955 ], [ -68.056939510999939, -14.226336250999969 ], [ -68.050898626999981, -14.229444452999939 ], [ -68.051184038999963, -14.23402779699996 ], [ -68.056696728999952, -14.237367780999937 ], [ -68.05691735299996, -14.244515338999967 ], [ -68.06006819299995, -14.246057644999949 ], [ -68.060602066999934, -14.248072753999965 ], [ -68.059339404999946, -14.24899362199994 ], [ -68.054702708999969, -14.246588839999953 ], [ -68.051282355999945, -14.246661436999949 ], [ -68.049074829999938, -14.251798333999947 ], [ -68.051480926999943, -14.255561830999959 ], [ -68.051105218999965, -14.257894303999938 ], [ -68.041180796999981, -14.259535296999953 ], [ -68.03331789799995, -14.258807747999981 ], [ -68.030002034999939, -14.260844821999962 ], [ -68.029473314999962, -14.264551464999959 ], [ -68.033233114999973, -14.276964892999965 ], [ -68.031453538999983, -14.279386744999954 ], [ -68.024097857999948, -14.275668113999922 ], [ -68.017657101999987, -14.274612098999967 ], [ -68.012176606999972, -14.268349949999951 ], [ -68.009021166999958, -14.269370146999961 ], [ -68.009688808999954, -14.271919128999965 ], [ -68.013049682999963, -14.274649728999972 ], [ -68.007194933999983, -14.280733760999976 ], [ -68.011721704999957, -14.28642004899995 ], [ -68.003386921999947, -14.293688955999926 ], [ -68.008587638999984, -14.296678776999951 ], [ -68.004565287999981, -14.302724255999983 ], [ -68.010022564999986, -14.306245012999966 ], [ -68.011563062999983, -14.30955038099995 ], [ -68.007689641999946, -14.316796847999965 ], [ -67.997437151999975, -14.312065888999932 ], [ -67.995139089999952, -14.313187242999968 ], [ -67.992903678999937, -14.318241330999959 ], [ -67.988585584999953, -14.316484433999953 ], [ -67.984875445999933, -14.317337394999983 ], [ -67.984926852999934, -14.319661014999946 ], [ -67.988604534999979, -14.322862031999934 ], [ -67.993950975999951, -14.324120358999959 ], [ -67.99431965499997, -14.326961799999934 ], [ -67.990177346999985, -14.330387116999919 ], [ -67.986807433999957, -14.338326305999937 ], [ -67.978602614999943, -14.347268594999942 ], [ -67.970054368999968, -14.347233756999962 ], [ -67.966408385999955, -14.343268827999962 ], [ -67.95803654499997, -14.339452920999976 ], [ -67.953548652999984, -14.343552700999959 ], [ -67.952378730999953, -14.354392882999939 ], [ -67.948413715999948, -14.352930786999941 ], [ -67.939968314999987, -14.358601136999937 ], [ -67.929245662999961, -14.356822000999959 ], [ -67.925515570999949, -14.358044299999966 ], [ -67.925357122999969, -14.362382343999974 ], [ -67.928671150999946, -14.365418130999943 ], [ -67.927082500999973, -14.370601763999966 ], [ -67.924984203999941, -14.373964741999943 ], [ -67.917351945999954, -14.375016545999934 ], [ -67.915518259999942, -14.379747470999975 ], [ -67.919302349999953, -14.388996874999982 ], [ -67.917646823999974, -14.396493980999926 ], [ -67.914922769999976, -14.400785689999962 ], [ -67.907069930999981, -14.401464326999927 ], [ -67.905535473, -14.403785435999961 ], [ -67.905971577999935, -14.407610726999959 ], [ -67.903634681999975, -14.413508219999931 ], [ -67.90660616699995, -14.420485550999958 ], [ -67.90382177, -14.424721305999983 ], [ -67.903160164, -14.433376745999965 ], [ -67.900725009999988, -14.434800993999945 ], [ -67.896059082999969, -14.43358185099993 ], [ -67.886502707, -14.436985441999978 ], [ -67.885397644999969, -14.442845941999964 ], [ -67.881056432999983, -14.448430287999937 ], [ -67.880932574, -14.456193406999942 ], [ -67.85865146, -14.472451488999978 ], [ -67.856222897999956, -14.476908687999977 ], [ -67.85795741799997, -14.48102789099995 ], [ -67.850930800999961, -14.485820646999963 ], [ -67.842447165999957, -14.484679592999955 ], [ -67.839413850999975, -14.48565794899997 ], [ -67.836880744, -14.493436851999954 ], [ -67.824636799999965, -14.496619627999957 ], [ -67.816681041999985, -14.495466844999955 ], [ -67.812176316, -14.499050784999948 ], [ -67.803929844, -14.500765382999921 ], [ -67.799589133, -14.506520816999968 ], [ -67.794312996999977, -14.505690176999964 ], [ -67.791242949, -14.510446490999982 ], [ -67.783602662999968, -14.513063939999943 ], [ -67.778522293999984, -14.519979085999973 ], [ -67.768916126999969, -14.527936691999974 ], [ -67.763764774, -14.528843012999966 ], [ -67.75722198299998, -14.537482070999939 ], [ -67.753481211999954, -14.538416770999948 ], [ -67.745523823, -14.546340331999946 ], [ -67.735477897999957, -14.549234514999963 ], [ -67.722477561999952, -14.548639037999981 ], [ -67.718945897999987, -14.55941483899994 ], [ -67.714921825, -14.559221372999961 ], [ -67.709502915, -14.555896124999947 ], [ -67.692032185999977, -14.555160156999944 ], [ -67.678895185000016, -14.563999157999939 ], [ -67.67561361, -14.564465638999932 ], [ -67.666014458999967, -14.574733166999975 ], [ -67.657560738, -14.572440483999971 ], [ -67.649180466, -14.578114897999969 ], [ -67.625629515999975, -14.576293224999965 ], [ -67.620093923999974, -14.582849294999956 ], [ -67.613379688, -14.582237991999936 ], [ -67.61047863200001, -14.584070147999965 ], [ -67.61055951400003, -14.590766878999945 ], [ -67.605410665, -14.594761762999953 ], [ -67.599104941, -14.594027554999967 ], [ -67.595268994000023, -14.590496381999964 ], [ -67.591212604999981, -14.589648848999952 ], [ -67.583637262000011, -14.592889600999968 ], [ -67.571537266, -14.593413578999957 ], [ -67.562352114, -14.595597502999967 ], [ -67.552406766, -14.588291675999926 ], [ -67.541405473, -14.593659283999951 ], [ -67.537627443000019, -14.593093766999965 ], [ -67.538426719000029, -14.596227266999954 ], [ -67.536752613000019, -14.602212447999928 ], [ -67.52895634500004, -14.60962414899995 ], [ -67.526054829000032, -14.615035009999923 ], [ -67.52565281, -14.627398579999973 ], [ -67.529424859, -14.632597710999955 ], [ -67.529400484, -14.637169193999959 ], [ -67.521580427, -14.63924837999997 ], [ -67.519808054, -14.64202981199997 ], [ -67.520672449, -14.643890598999965 ], [ -67.524887074, -14.643539380999979 ], [ -67.52840554200003, -14.645104478999938 ], [ -67.529364973000042, -14.648762532999966 ], [ -67.527793443, -14.653498238999928 ], [ -67.522915170000019, -14.653760252999973 ], [ -67.520139081000011, -14.646731584999936 ], [ -67.516639346000034, -14.643818681999967 ], [ -67.510387297000022, -14.644852862999922 ], [ -67.509338323999984, -14.648166120999971 ], [ -67.514061047000041, -14.654981461999961 ], [ -67.513092313000016, -14.659300286999947 ], [ -67.50317926000001, -14.67103688399993 ], [ -67.493892824000014, -14.674835094999937 ], [ -67.489603367000043, -14.678582857999968 ], [ -67.497855680000058, -14.683608924999927 ], [ -67.497209743000042, -14.686312774999973 ], [ -67.48610189700004, -14.688765737999969 ], [ -67.475732281000049, -14.686589047999965 ], [ -67.475035888000036, -14.688303018999934 ], [ -67.479354936, -14.694931545999964 ], [ -67.479464549, -14.697640280999957 ], [ -67.469855432000031, -14.700187491999941 ], [ -67.460550077, -14.713846309999951 ], [ -67.442002176000031, -14.72625231999996 ], [ -67.441996358000068, -14.731393885999973 ], [ -67.438884244000022, -14.732777887999926 ], [ -67.43701837700003, -14.735993736999935 ], [ -67.433895294000038, -14.737180295999959 ], [ -67.429453667000047, -14.735476186999961 ], [ -67.426190863000073, -14.736440482999964 ], [ -67.42487808000007, -14.739600188999928 ], [ -67.428676920000072, -14.74527577199995 ], [ -67.42764505800001, -14.74780964899997 ], [ -67.42292818100006, -14.74847701699996 ], [ -67.419704633000052, -14.743971096999919 ], [ -67.416381320000056, -14.744785360999968 ], [ -67.415749495000014, -14.747202340999927 ], [ -67.420169862000051, -14.751865957999939 ], [ -67.424351891000043, -14.759792170999955 ], [ -67.424241652000049, -14.762302409999961 ], [ -67.419238114000024, -14.766034705999971 ], [ -67.416809196000045, -14.762072238999957 ], [ -67.41434959700004, -14.762354295999952 ], [ -67.411582635000016, -14.771117727999975 ], [ -67.415737039000049, -14.774374673999942 ], [ -67.416361358000032, -14.777248649999931 ], [ -67.413409138000048, -14.781885636999954 ], [ -67.409402366000037, -14.779436756999926 ], [ -67.406507034000057, -14.780463019999953 ], [ -67.404134144000054, -14.794914560999926 ], [ -67.400167460000063, -14.795365347999956 ], [ -67.39659183400002, -14.792769767999962 ], [ -67.392987688000048, -14.794059938999961 ], [ -67.394193664000028, -14.801356079999946 ], [ -67.396754413000039, -14.804094108999941 ], [ -67.399525558000022, -14.813338145999973 ], [ -67.399005193000036, -14.817250421999969 ], [ -67.38874956500004, -14.816282112999936 ], [ -67.386426589000038, -14.81877678599994 ], [ -67.387981865000057, -14.820371965999975 ], [ -67.393053373000072, -14.820168286999941 ], [ -67.396552344000071, -14.826547779999936 ], [ -67.401934566000051, -14.82589769899994 ], [ -67.408219997000032, -14.827794589999934 ], [ -67.407494253000053, -14.83039020599994 ], [ -67.399869922000022, -14.83087536199997 ], [ -67.398278236000053, -14.834206239999949 ], [ -67.400381318000058, -14.83655247399996 ], [ -67.40743579600003, -14.834180154999958 ], [ -67.409763912000031, -14.835182711999941 ], [ -67.409362841000046, -14.837081093999922 ], [ -67.404555853000062, -14.838871225999979 ], [ -67.402693267000046, -14.841429031999949 ], [ -67.404423326000057, -14.844370490999941 ], [ -67.408567521000037, -14.84078224699994 ], [ -67.41076668, -14.842620893999928 ], [ -67.410534100000035, -14.845010676999941 ], [ -67.405884090000043, -14.846323627999935 ], [ -67.403456147000071, -14.850533543999967 ], [ -67.405896403000071, -14.857216470999957 ], [ -67.409955737000047, -14.861058871999937 ], [ -67.402725654000022, -14.862114704999952 ], [ -67.400123047000051, -14.864966236999971 ], [ -67.401950568000046, -14.867208924999932 ], [ -67.408077962000021, -14.86566721199995 ], [ -67.411943906000047, -14.866560866999967 ], [ -67.415107699000046, -14.872704691999948 ], [ -67.420120796, -14.876475817999953 ], [ -67.422486108000058, -14.880886284999969 ], [ -67.429290274000067, -14.88355157099994 ], [ -67.430930206000056, -14.897091535999941 ], [ -67.429386377000029, -14.898381878999933 ], [ -67.424569828000045, -14.897927922999944 ], [ -67.422498048000037, -14.905186366999935 ], [ -67.417414815000043, -14.904596493999975 ], [ -67.415544898000022, -14.907414962999946 ], [ -67.417063975000033, -14.909529887999945 ], [ -67.424365697000056, -14.911856861999976 ], [ -67.426297754000032, -14.919423127999943 ], [ -67.430129370000046, -14.922778898999976 ], [ -67.430226589000043, -14.929010277999955 ], [ -67.432610192000041, -14.927979806999922 ], [ -67.432338021000049, -14.925181620999968 ], [ -67.434574954000041, -14.926569740999973 ], [ -67.435866390000029, -14.925232394999961 ], [ -67.437233402000018, -14.932047453999923 ], [ -67.439888052000029, -14.934351913999933 ], [ -67.439223335, -14.936333223999947 ], [ -67.441505176000021, -14.936915116999954 ], [ -67.44040019, -14.939859363999966 ], [ -67.446406301000025, -14.941054613999933 ], [ -67.448289705000036, -14.939419347999934 ], [ -67.447264812000029, -14.935830671999948 ], [ -67.45047236, -14.932219132999924 ], [ -67.45734520100001, -14.932323589999948 ], [ -67.459312531000037, -14.934014902999929 ], [ -67.461542099000056, -14.931610522999966 ], [ -67.470036206000046, -14.932990330999923 ], [ -67.469781115, -14.936567557999977 ], [ -67.472793506000016, -14.936250187999967 ], [ -67.475478005000014, -14.943262060999926 ], [ -67.482585884, -14.948392171999949 ], [ -67.481436360000032, -14.951904150999946 ], [ -67.483037826000043, -14.951671971999934 ], [ -67.48442525800003, -14.954329488999976 ], [ -67.482696248000025, -14.95407288999996 ], [ -67.483751186, -14.956503196999954 ], [ -67.48201455600001, -14.955688995999934 ], [ -67.480060788, -14.958282437999964 ], [ -67.481929373999989, -14.959016312999942 ], [ -67.479858597000018, -14.961254485999968 ], [ -67.481451541000013, -14.968232468999931 ], [ -67.479705248000016, -14.968649404999949 ], [ -67.480568734000016, -14.97421900899996 ], [ -67.479122135000011, -14.977882794999973 ], [ -67.484113706000016, -14.98042421499996 ], [ -67.482216074, -14.987970565999948 ], [ -67.484885117000033, -14.98867547899993 ], [ -67.484263024000015, -14.990525235999939 ], [ -67.487733294999984, -14.993137226999972 ], [ -67.487322429000017, -14.995321160999929 ], [ -67.484687142000027, -14.996405276999948 ], [ -67.484230205000017, -15.003904697999925 ], [ -67.48934886, -15.010237468999941 ], [ -67.487721699000019, -15.012573648999927 ], [ -67.491808495000043, -15.016383797999937 ], [ -67.490681728000013, -15.020668328999925 ], [ -67.493652278000013, -15.023395313999972 ], [ -67.496915887999975, -15.023590020999963 ], [ -67.498249903000044, -15.025835142999931 ], [ -67.502059136000014, -15.025815582999932 ], [ -67.509144597000031, -15.036356315999971 ], [ -67.519581685, -15.043652960999962 ], [ -67.53717632, -15.064863648999953 ], [ -67.569654053, -15.082071646999962 ], [ -67.580549896000022, -15.083894184999959 ], [ -67.584219581999974, -15.091312207999978 ], [ -67.649471237999961, -15.106512135999941 ], [ -67.663952567, -15.123656920999963 ], [ -67.667859254999968, -15.119348271999966 ], [ -67.673646016999982, -15.117621943999948 ], [ -67.689030573, -15.120572253999963 ], [ -67.690478545999966, -15.124541460999975 ], [ -67.68841695, -15.128270269999966 ], [ -67.671972826999962, -15.131694921999951 ], [ -67.667633263999988, -15.137390492999945 ], [ -67.668848887999985, -15.142238612999964 ], [ -67.671349333, -15.143764664999928 ], [ -67.68584186, -15.141788050999939 ], [ -67.68977970899995, -15.146101810999935 ], [ -67.688621974999947, -15.150165911999972 ], [ -67.674456597999978, -15.151183367999977 ], [ -67.670707749, -15.152921659999945 ], [ -67.66785192, -15.156755566999946 ], [ -67.669298297999973, -15.160944918999975 ], [ -67.676269029999972, -15.162649388999967 ], [ -67.680796163, -15.16842613999995 ], [ -67.681458666999987, -15.177152545999949 ], [ -67.670510850999989, -15.205822707999975 ], [ -67.671461898999979, -15.208539976999928 ], [ -67.67905689, -15.213140288999966 ], [ -67.680485517999983, -15.227384866999952 ], [ -67.686012529999985, -15.236826712999974 ], [ -67.687334177999972, -15.243042477999948 ], [ -67.701064465999949, -15.245964390999976 ], [ -67.704014796999971, -15.248803890999964 ], [ -67.708878601999984, -15.249086732999952 ], [ -67.711464612, -15.248787991999954 ], [ -67.715520753999968, -15.242441120999958 ], [ -67.72494310499998, -15.243376856999934 ], [ -67.724551173999956, -15.238062905999975 ], [ -67.727452848, -15.238961390999981 ], [ -67.73087581, -15.237099115999964 ], [ -67.734367676, -15.230454641999925 ], [ -67.732984058999946, -15.228898400999974 ], [ -67.736109508999974, -15.226113126999955 ], [ -67.733848957999967, -15.222670304999944 ], [ -67.738025825999969, -15.219577304999968 ], [ -67.757956341999957, -15.225352913999926 ], [ -67.759185967999954, -15.229103441999937 ], [ -67.773338055999957, -15.228985148999984 ], [ -67.778609998, -15.233406933999962 ], [ -67.791433631999965, -15.231940967999947 ], [ -67.796200691999971, -15.227872338999928 ], [ -67.799163512999954, -15.228240040999934 ], [ -67.801176652999985, -15.225283321999941 ], [ -67.806687401, -15.225560767999982 ], [ -67.815573166999982, -15.222890312999933 ], [ -67.817960179999957, -15.224710586999946 ], [ -67.819805924999983, -15.223219770999943 ], [ -67.826097814999983, -15.22848514999993 ], [ -67.834817543999989, -15.232363406999978 ], [ -67.841669577999951, -15.242665467999929 ], [ -67.851505521, -15.248875992999954 ], [ -67.854161446999981, -15.253133117999935 ], [ -67.862086575, -15.257077968999971 ], [ -67.951480009999955, -15.274668743999939 ], [ -68.034596823999948, -15.297002120999936 ], [ -68.051095352999937, -15.308438608999953 ], [ -68.054193522999981, -15.323746142999934 ], [ -68.057157367999935, -15.328743850999953 ], [ -68.060501831999943, -15.330862347999986 ], [ -68.065043793999962, -15.321109388999954 ], [ -68.069615949999957, -15.317531844999962 ], [ -68.06905631099994, -15.315532112999959 ], [ -68.064545349999946, -15.314457321999958 ], [ -68.064106595999988, -15.312779164999936 ], [ -68.068573198999957, -15.301211194999945 ], [ -68.068618514999969, -15.294394217999978 ], [ -68.079388871999981, -15.276472939999969 ], [ -68.083466407999936, -15.273474158999926 ], [ -68.086187473999985, -15.266477508999969 ], [ -68.090825983999935, -15.265685542999966 ], [ -68.097846666999942, -15.260201949999953 ], [ -68.098576032999972, -15.256304888999978 ], [ -68.102199405999954, -15.256049397999956 ], [ -68.102836988999968, -15.252567491999965 ], [ -68.107167825999966, -15.251869420999974 ], [ -68.113602730999958, -15.247379639999965 ], [ -68.114067172999967, -15.242954683999923 ], [ -68.11870603999995, -15.245639524999952 ], [ -68.134847955999987, -15.240067308999928 ], [ -68.143250061999936, -15.232683878999978 ], [ -68.144411411999954, -15.229635620999945 ], [ -68.151475662999985, -15.227074672999947 ], [ -68.157863887999966, -15.216734233999938 ], [ -68.161577944999976, -15.216039507999934 ], [ -68.16205301399998, -15.213134279999961 ], [ -68.170713295999974, -15.207754914999954 ], [ -68.168795694999972, -15.204289146999944 ], [ -68.172474594999983, -15.202052406999936 ], [ -68.17398948999994, -15.197612856999973 ], [ -68.168089048999946, -15.18724661899995 ], [ -68.170906267999953, -15.184788973999961 ], [ -68.174740090999933, -15.18574122599995 ], [ -68.176760685999966, -15.184227365999957 ], [ -68.174565343999973, -15.178736118999957 ], [ -68.175703830999964, -15.172224720999969 ], [ -68.18218101399998, -15.166161607999978 ], [ -68.18666609099995, -15.158978152999962 ], [ -68.186196779999989, -15.156124095999939 ], [ -68.191030030999968, -15.153366199999933 ], [ -68.19225937799996, -15.150079962999937 ], [ -68.19861707299998, -15.152231442999954 ], [ -68.201903581999943, -15.150878493999931 ], [ -68.204793305999942, -15.151905264999984 ], [ -68.205487737999988, -15.150592148999969 ], [ -68.20381890699997, -15.149057822999964 ], [ -68.208647660999986, -15.146838347999957 ], [ -68.210882798999933, -15.148400928999934 ], [ -68.213999024999964, -15.148112811999969 ], [ -68.222542096999973, -15.143621628999943 ], [ -68.230532355999969, -15.147210607999966 ], [ -68.232258852999962, -15.146463024999953 ], [ -68.231654416999959, -15.150182831999928 ], [ -68.233250096999939, -15.151575588999949 ], [ -68.232158013999936, -15.153939899999951 ], [ -68.228886844, -15.156191521999975 ], [ -68.228164022999977, -15.158575011999968 ], [ -68.225577431999966, -15.15878142099996 ], [ -68.229347871999948, -15.161491248999933 ], [ -68.229820090999965, -15.163705406999952 ], [ -68.233697131999975, -15.164208963999954 ], [ -68.239154800999984, -15.162428724999927 ], [ -68.241356659999951, -15.158945070999948 ], [ -68.243389311999977, -15.158688782999947 ], [ -68.245588680999958, -15.153083437999957 ], [ -68.25168210399994, -15.14829470399996 ], [ -68.254920517999949, -15.151785713999972 ], [ -68.256602499999985, -15.146142653999961 ], [ -68.259499608999988, -15.145111672999983 ], [ -68.261161350999942, -15.141702594999964 ], [ -68.265631943999963, -15.141977303999969 ], [ -68.26877935899995, -15.13614873299997 ], [ -68.273920234999935, -15.137815773999929 ], [ -68.277763510999932, -15.132925356999984 ], [ -68.282406467999976, -15.136205191999979 ], [ -68.283116228999972, -15.133839393999953 ], [ -68.288074440999935, -15.131235860999931 ], [ -68.291832485999976, -15.134082161999977 ], [ -68.297075445999951, -15.134708489999978 ], [ -68.297049381999955, -15.137915755999929 ], [ -68.301021892999984, -15.13647884099993 ], [ -68.304705163999984, -15.139683503999947 ], [ -68.311841167999944, -15.137516695999979 ], [ -68.310301645999971, -15.145265611999948 ], [ -68.315656430999979, -15.149518109999972 ], [ -68.326099907999946, -15.148927616999972 ], [ -68.324457278999958, -15.154376435999955 ], [ -68.33073382799995, -15.15361580599995 ], [ -68.334515804999967, -15.156747027999932 ], [ -68.340797133999956, -15.150574239999965 ], [ -68.34824124499994, -15.148289737999956 ], [ -68.348477504999948, -15.142938987999969 ], [ -68.354720533999966, -15.140486039999928 ], [ -68.355689692999988, -15.137297471999947 ], [ -68.36013560799995, -15.134289962999953 ], [ -68.355945619999943, -15.124427415999939 ], [ -68.365952015999937, -15.120488304999981 ], [ -68.366294191999941, -15.112485097999981 ], [ -68.371013489999939, -15.110393137999951 ], [ -68.373831692999943, -15.106678943999954 ], [ -68.380779981999979, -15.104353654999953 ], [ -68.390072222999947, -15.096239828999956 ], [ -68.396954956999934, -15.092543556999935 ], [ -68.401051849999988, -15.087853230999942 ], [ -68.406730192999987, -15.08727981599997 ], [ -68.411841410999955, -15.092985664999954 ], [ -68.412543162999953, -15.091159881999943 ], [ -68.415107256999988, -15.092084391999945 ], [ -68.419197564999948, -15.090484740999955 ], [ -68.428114189999974, -15.081535088999946 ], [ -68.430600550999941, -15.081054780999978 ], [ -68.432559523999942, -15.076956401999952 ], [ -68.444294487999969, -15.064777770999974 ], [ -68.439971230999959, -15.055167433999937 ], [ -68.443292078999946, -15.05237352499995 ], [ -68.447407292999969, -15.053933792999938 ], [ -68.449589291999985, -15.051079322999952 ], [ -68.451820100999953, -15.051758347999961 ], [ -68.456190867999965, -15.043166415999965 ], [ -68.460310468999978, -15.044503834999942 ], [ -68.45727758299995, -15.040176827999973 ], [ -68.452928100999941, -15.038941543999956 ], [ -68.453890530999956, -15.034981007999939 ], [ -68.457198239999968, -15.03513245599992 ], [ -68.460919923999938, -15.039805835999973 ], [ -68.469179258999986, -15.037085275999971 ], [ -68.483338438999965, -15.02606165099996 ], [ -68.486175061999973, -15.025551391999958 ], [ -68.486238249999985, -15.023829240999927 ], [ -68.496112767999932, -15.019660412999942 ], [ -68.496752313999934, -15.015614431999948 ], [ -68.501477626999986, -15.015672675999951 ], [ -68.501041391999934, -15.012753379999937 ], [ -68.504004897999948, -15.008358425999974 ], [ -68.50809006999998, -15.008462974999929 ], [ -68.508355202999951, -15.000139088999958 ], [ -68.512685562999934, -15.000578971999973 ], [ -68.509291251999969, -14.992561778999965 ], [ -68.506950247999953, -14.993932174999939 ], [ -68.50375347399995, -14.992878696999973 ], [ -68.509345230999941, -14.982371593999968 ], [ -68.511068116999979, -14.982225790999964 ], [ -68.512010992999933, -14.974446334999982 ], [ -68.515891809999971, -14.974867239999973 ], [ -68.523402895999936, -14.965734003999957 ], [ -68.525186631999986, -14.965827425999974 ], [ -68.524821295999971, -14.964122294999983 ], [ -68.529137752999986, -14.959347039999958 ], [ -68.534277394999947, -14.957832615999962 ], [ -68.533851584999979, -14.955619051999976 ], [ -68.537113972999975, -14.954579141999945 ], [ -68.535816980999982, -14.951293346999931 ], [ -68.540862913999945, -14.950346702999978 ], [ -68.540776878999964, -14.947416197999926 ], [ -68.545532639999976, -14.94400499199997 ], [ -68.545599054999968, -14.941672816999924 ], [ -68.549937069999942, -14.940874063999956 ], [ -68.549417307999988, -14.939407871999947 ], [ -68.552095121999969, -14.93833668399998 ], [ -68.554532614999971, -14.934484162999976 ], [ -68.561243722999961, -14.931088374999947 ], [ -68.561156015999984, -14.928845596999961 ], [ -68.566179950999981, -14.926289633999938 ], [ -68.568432306999966, -14.922556207999946 ], [ -68.572398543999952, -14.922922470999936 ], [ -68.570403728999963, -14.920885431999974 ], [ -68.571333079999988, -14.917448498999939 ], [ -68.575792239999942, -14.917307299999941 ], [ -68.578176735999932, -14.911905505999988 ], [ -68.580912969999986, -14.912179644999977 ], [ -68.583041691999938, -14.908565439999959 ], [ -68.585561041999938, -14.909676370999929 ], [ -68.589315619999979, -14.907776403999945 ], [ -68.59427747899997, -14.898527700999978 ], [ -68.598335975999987, -14.898678378999934 ], [ -68.600700349999954, -14.897103701999981 ], [ -68.602999699999941, -14.890720695999956 ], [ -68.613035200999946, -14.882671561999921 ], [ -68.617548688999989, -14.875717998999963 ], [ -68.619632813999942, -14.87146946299992 ], [ -68.61860997499997, -14.868326054999953 ], [ -68.619828729999938, -14.866743199999974 ], [ -68.618039207999971, -14.864909010999948 ], [ -68.618925581999974, -14.863416121999929 ], [ -68.62224746399994, -14.862793253999945 ], [ -68.62339609299994, -14.861048471999933 ], [ -68.627602001999946, -14.863037547999966 ], [ -68.628639076999946, -14.860185018999973 ], [ -68.633745791999971, -14.858374989999964 ], [ -68.638538411999946, -14.853726134999928 ], [ -68.642490131999978, -14.854675451999976 ], [ -68.647899180999957, -14.849938331999969 ], [ -68.652496569999983, -14.849946303999955 ], [ -68.659404569999936, -14.839248541999952 ], [ -68.672630371999958, -14.82605104199996 ], [ -68.699407908999945, -14.807153881999971 ], [ -68.731405826999946, -14.792941564999976 ], [ -68.732027395999978, -14.791475533999973 ], [ -68.737151111999935, -14.792848970999955 ], [ -68.74289276199994, -14.789015975999979 ], [ -68.74716977099996, -14.789929733999937 ], [ -68.748737115999973, -14.786773758999978 ], [ -68.760099673999946, -14.783436787999964 ], [ -68.76407975799998, -14.786072299999944 ], [ -68.763274324999941, -14.791956260999944 ], [ -68.772507272999974, -14.793106093999933 ], [ -68.774997097999972, -14.796000993999945 ], [ -68.783101206999959, -14.792645314999957 ], [ -68.794470052999955, -14.792552237999931 ], [ -68.805707849, -14.78857561499996 ], [ -68.82022735299995, -14.777955041999974 ], [ -68.822031740999947, -14.774345254999954 ], [ -68.810305805999974, -14.74322185599994 ], [ -68.801134633999936, -14.737292429999966 ], [ -68.800800506999963, -14.735600973999974 ], [ -68.796602770999982, -14.734543210999963 ], [ -68.793763314, -14.728631532999948 ], [ -68.782782976999954, -14.72556335099994 ], [ -68.779647482999962, -14.726590257999929 ], [ -68.774779494999962, -14.723710297999963 ], [ -68.77353117499996, -14.721021005999942 ], [ -68.775391108999941, -14.71825481999997 ], [ -68.772070929999984, -14.715422176999935 ], [ -68.768565755999987, -14.715644472999939 ], [ -68.766220404999956, -14.711961364999979 ], [ -68.766336232999947, -14.70923776199993 ], [ -68.762021122999954, -14.707850414999941 ], [ -68.757993365999937, -14.70289371099995 ], [ -68.757666279999967, -14.69970844799996 ], [ -68.760763858999965, -14.699689170999934 ], [ -68.76304367299997, -14.697601829999936 ], [ -68.766647174999946, -14.69092387499995 ], [ -68.763433673999941, -14.681710288999971 ], [ -68.757017814999983, -14.67799785899995 ], [ -68.756265628999984, -14.675060820999935 ], [ -68.753532839999934, -14.672862506999932 ], [ -68.748733017999939, -14.670463384999948 ], [ -68.749718195999947, -14.667815882999941 ], [ -68.747272435999946, -14.665024653999975 ], [ -68.740118222999968, -14.663108960999983 ], [ -68.740734989999979, -14.659519617999926 ], [ -68.738149798999984, -14.659451684999963 ], [ -68.734579113999985, -14.662054064999946 ], [ -68.730828462999966, -14.660308056999948 ], [ -68.728304782999942, -14.653162373999979 ], [ -68.724559806999935, -14.651206854999943 ], [ -68.723999918999937, -14.64781345399996 ], [ -68.721178548999944, -14.644870042999971 ], [ -68.717785452, -14.646731877999962 ], [ -68.713059570999974, -14.646207672999939 ], [ -68.713599546999944, -14.640339560999962 ], [ -68.706216540999947, -14.638196809999956 ], [ -68.706039780999959, -14.643739037999973 ], [ -68.703790402999971, -14.644633264999978 ], [ -68.702083757999958, -14.640388248999955 ], [ -68.699199911999983, -14.639515927999984 ], [ -68.699004808999973, -14.634407242999936 ], [ -68.697087712999974, -14.631549533999927 ], [ -68.698245398, -14.629120202999964 ], [ -68.69665039399996, -14.626701233999944 ], [ -68.697327177999966, -14.622086526999963 ], [ -68.693842826999969, -14.620463546999932 ], [ -68.69355380199994, -14.615569037999943 ], [ -68.683145563999972, -14.598501228999966 ], [ -68.687344983999935, -14.591351713999934 ], [ -68.692664434999983, -14.593970494999947 ], [ -68.697009732999959, -14.598698532999945 ], [ -68.706464822999976, -14.598807537999969 ], [ -68.717112245999942, -14.603811122999964 ], [ -68.740961210999956, -14.608720952999926 ], [ -68.744226513999934, -14.611405670999941 ], [ -68.752131063999983, -14.613749023999956 ], [ -68.767146548999975, -14.624582209999973 ], [ -68.774249149999946, -14.622400590999973 ], [ -68.779339264999976, -14.622889255999951 ], [ -68.78896677299997, -14.635519208999941 ], [ -68.799428230999979, -14.637637696999949 ], [ -68.811397327999941, -14.635234337999975 ], [ -68.817155598999989, -14.630383513999965 ], [ -68.822469944999966, -14.631033651999935 ], [ -68.835852426999963, -14.64937871099994 ], [ -68.836079826999935, -14.656131247999959 ], [ -68.839863838999975, -14.652630195999961 ], [ -68.846591133999937, -14.650770843999966 ], [ -68.847355093999965, -14.647580330999975 ], [ -68.855947337999979, -14.645038246999938 ], [ -68.862115378999988, -14.640649385999961 ], [ -68.864271879999933, -14.636981321999933 ], [ -68.873469995999983, -14.636380916999935 ], [ -68.877668166999968, -14.63677570399995 ], [ -68.885334751999949, -14.643082980999965 ], [ -68.891267398999958, -14.645609740999923 ], [ -68.910621481999954, -14.648325453999973 ], [ -68.913538498999969, -14.651867672999968 ], [ -68.931742543999974, -14.659197916999972 ], [ -68.934178215999964, -14.658828470999941 ], [ -68.945672215999934, -14.656302695999951 ], [ -68.94601973999994, -14.654004174999962 ], [ -68.943956406999973, -14.652872679999977 ], [ -68.940902080999933, -14.644247127999961 ], [ -68.945993656999974, -14.63571738399998 ], [ -68.946270467999966, -14.628596548999949 ], [ -68.942195129999959, -14.626745647999936 ], [ -68.937152444999981, -14.615610335999975 ], [ -68.930448199999944, -14.60901820799995 ], [ -68.928741910999975, -14.603016605999922 ], [ -68.926645530999963, -14.602113786999951 ], [ -68.924389749999989, -14.593805979999956 ], [ -68.931680446999962, -14.582506697999973 ], [ -68.946914214999936, -14.579886301999972 ], [ -68.965945155999975, -14.57235713099994 ], [ -68.974612037999975, -14.561908873999981 ], [ -68.986048169999947, -14.556799979999935 ], [ -68.991118046999986, -14.544054285999946 ], [ -68.997444686999984, -14.533719883999943 ], [ -69.002012509999986, -14.530777408999946 ], [ -69.014242240999977, -14.52831295699997 ], [ -69.018923031999975, -14.529324551999933 ], [ -69.028207408999947, -14.541237069999967 ], [ -69.033070304999967, -14.542456484999946 ], [ -69.043753046999939, -14.539655790999973 ], [ -69.048687798999936, -14.532334506999971 ], [ -69.053181430999985, -14.530180497999934 ], [ -69.055832065999951, -14.523720778999985 ], [ -69.058925724999938, -14.521638755999968 ], [ -69.064893532999974, -14.523216072999961 ], [ -69.068947399999956, -14.52945871299994 ], [ -69.073811186999933, -14.533476226999936 ], [ -69.078599722999968, -14.532541689999958 ], [ -69.084273504999942, -14.534764516999918 ], [ -69.089799178999954, -14.534834232999966 ], [ -69.101068787999964, -14.52887292499997 ], [ -69.111731921999933, -14.51939474599993 ], [ -69.109663609999984, -14.508128176999952 ], [ -69.115863374999947, -14.496354499999944 ], [ -69.112915429999987, -14.491503607999954 ], [ -69.114358906999939, -14.487295162999944 ], [ -69.105197915999952, -14.483529926999951 ], [ -69.097416632999966, -14.484707719999953 ], [ -69.098262310999985, -14.480398535999946 ], [ -69.088625412999988, -14.462761057999945 ], [ -69.082168202999981, -14.44424305099994 ], [ -69.072678061999966, -14.44597964899998 ], [ -69.065640978999966, -14.442736566999939 ], [ -69.060541249999972, -14.44233299099994 ], [ -69.05097283899994, -14.429203942999941 ], [ -69.02786630099996, -14.425092974999936 ], [ -69.026380408999955, -14.423497016999939 ], [ -69.026673918999961, -14.414603677999931 ], [ -69.024197430999948, -14.406339549999919 ], [ -69.013337578999938, -14.402087330999963 ], [ -69.008934935999946, -14.404019601999948 ], [ -69.004654588999983, -14.403408122999954 ], [ -69.003431631999945, -14.399225611999952 ], [ -69.005363902999989, -14.39572795799995 ], [ -69.003578386999948, -14.390821455999975 ], [ -69.000887881999972, -14.387470554999938 ], [ -68.996909197999969, -14.38862421099997 ], [ -68.984744857999942, -14.37360304499998 ], [ -68.98989758099998, -14.369559135999967 ], [ -68.994300223999971, -14.361484361999942 ], [ -68.994332836999945, -14.357375228999961 ], [ -68.998050623999973, -14.351540911999958 ], [ -68.998018010999942, -14.346453412999946 ], [ -69.003496856999959, -14.345799357999965 ], [ -69.003801236999948, -14.336972328999936 ], [ -69.010845464999989, -14.327101711999944 ], [ -69.011027413999955, -14.322139023999965 ], [ -69.01560249399995, -14.315070946999976 ], [ -69.00691094299998, -14.303596557999974 ], [ -69.006690809999952, -14.297029281999921 ], [ -69.003076974999942, -14.290157489999958 ], [ -68.996509697999954, -14.28288762599994 ], [ -68.990030475999959, -14.281089879999971 ], [ -68.989773654999979, -14.277758546999962 ], [ -68.985169223999947, -14.274254776999951 ], [ -68.984839025999975, -14.271125230999926 ], [ -68.979207311999971, -14.265438482999969 ], [ -68.978748702999951, -14.263545346999932 ], [ -68.983059623999964, -14.260683628999962 ], [ -68.988783059999946, -14.250076927999935 ], [ -68.989003191999984, -14.243192294999973 ], [ -68.985847964999948, -14.238239320999979 ], [ -68.980418038999971, -14.233589029999969 ], [ -68.976730824999947, -14.233258830999937 ], [ -68.974048881999977, -14.235074921999965 ], [ -68.971842653999943, -14.23344795399993 ], [ -68.969172661999949, -14.234118340999943 ], [ -68.96905707699996, -14.224992976999939 ], [ -68.961598052999989, -14.219341082999961 ], [ -68.828343624999945, -14.219282501999945 ], [ -68.826573304999954, -14.21591330899998 ], [ -68.831655832999957, -14.205234287999936 ], [ -68.834054329999958, -14.205405608999969 ], [ -68.834625400999983, -14.203007112999956 ], [ -68.839308179999932, -14.199580688999966 ], [ -68.842963032999933, -14.199238045999952 ], [ -68.844504923999978, -14.196439799999945 ], [ -68.846960526999965, -14.196953762999954 ], [ -68.847588704999964, -14.19392708999993 ], [ -68.845989706999944, -14.189644059999981 ], [ -68.851072234999947, -14.186731599999979 ], [ -68.850329843999987, -14.184675744999931 ], [ -68.851757519999978, -14.182048819999979 ], [ -68.849530344999948, -14.179022145999957 ], [ -68.853984695999941, -14.175595721999974 ], [ -68.853013875999977, -14.166572804999925 ], [ -68.855983442999957, -14.164402736999941 ], [ -68.856040549999989, -14.16217556199995 ], [ -68.853470731999948, -14.161376062999976 ], [ -68.852043054999967, -14.157549889999933 ], [ -68.847760024999957, -14.153837930999936 ], [ -68.83679546999997, -14.152238931999936 ], [ -68.833540365999966, -14.154409000999978 ], [ -68.832683760999942, -14.150697041999937 ], [ -68.836338612999953, -14.146014262999925 ], [ -68.833369045999973, -14.144929227999969 ], [ -68.837138111999934, -14.144415264999967 ], [ -68.838166038999987, -14.141045947999935 ], [ -68.844619137999985, -14.141160161999952 ], [ -68.850044308999941, -14.137790844999932 ], [ -68.850158522999948, -14.135449455999948 ], [ -68.853185196999959, -14.135049705999956 ], [ -68.853242303999934, -14.132137245999965 ], [ -68.85918143899994, -14.128939249999975 ], [ -68.860038044999953, -14.124199363999939 ], [ -68.871630778999986, -14.111121846999938 ], [ -68.875202786, -14.099807916999962 ], [ -68.874132027999963, -14.096714616999977 ], [ -68.875559704999944, -14.087553691999968 ], [ -68.880199653999966, -14.088743422999922 ], [ -68.884125764999965, -14.084817312999968 ], [ -68.882936033999954, -14.076965090999968 ], [ -68.879247869999972, -14.073752818999935 ], [ -68.882817060999969, -14.072206168999966 ], [ -68.883055007999985, -14.069112869999973 ], [ -68.879604787999938, -14.065424705999922 ], [ -68.882698088, -14.062569351999963 ], [ -68.884217175999936, -14.056363786999949 ], [ -68.892726127999936, -14.050995722999971 ], [ -68.890441844999941, -14.046655585999922 ], [ -68.902034579999963, -14.039631415999963 ], [ -68.909172962999946, -14.040202486999931 ], [ -68.91002956799997, -14.035691028999958 ], [ -68.916197131999979, -14.033520959999967 ], [ -68.918481414999974, -14.02632546999995 ], [ -68.923563942999976, -14.02986610799997 ], [ -68.927561436999952, -14.027867360999952 ], [ -68.927846972999987, -14.030722713999982 ], [ -68.930245469999988, -14.026553898999966 ], [ -68.933786106999946, -14.027524718999931 ], [ -68.93732674499995, -14.025811506999963 ], [ -68.938468886999942, -14.022499296999957 ], [ -68.942694808999988, -14.020500549999957 ], [ -68.940010777999987, -14.019072872999978 ], [ -68.939611027999945, -14.014218772999978 ], [ -68.94446512899998, -14.014904057999955 ], [ -68.946692303999953, -14.012562667999934 ], [ -68.946749410999985, -14.003140001999954 ], [ -68.953545151999947, -14.004624785999969 ], [ -68.960283784999945, -14.000969933999958 ], [ -68.964909456999976, -13.988520593999963 ], [ -68.968335880999973, -13.984294671999983 ], [ -68.97570269199997, -13.981382210999987 ], [ -68.979072009999982, -13.974814898999972 ], [ -68.978101188999972, -13.971388474999976 ], [ -68.972561803999952, -13.966648587999948 ], [ -68.971819411999945, -13.956197995999966 ], [ -68.968297809999967, -13.952600250999986 ], [ -68.963715584999989, -13.950866853999967 ] ] ] } }
]
}
