{"type": "FeatureCollection", "features": [{"type": "Feature", "properties": {"c_ut": "080304", "dep": "BENI", "prov": "General Jos\u00e9 Balliv\u00edan", "mun": "Puerto Menor de Rurrenabaque", "n_ley": 0.0, "fecha_ley": null, "zona": "19", "bl_comli_m": "CSL_31/10/1995", "capital": "Rurrenabaque", "c_siot": "08", "tioc_aioc": "", "sup_ha": 250000.0, "area2": 0.0}, "geometry": {"type": "Polygon", "coordinates": [[[-67.3507136450001, -14.385736426999923], [-67.34957843000007, -14.386039160999921], [-67.34935184400007, -14.386037581999965], [-67.34855954600005, -14.385928505999964], [-67.34810637300008, -14.385925345999954], [-67.34764939600008, -14.386439898999965], [-67.34764559400008, -14.386957612999934], [-67.34764027400009, -14.387682404999957], [-67.3471840530001, -14.388093415999936], [-67.34661605900011, -14.388296539999937], [-67.3461613570001, -14.388500463999932], [-67.3454785420001, -14.38890987999996], [-67.34468014500011, -14.389629137999963], [-67.3437676860001, -14.390451137999934], [-67.34285521900007, -14.391273125999925], [-67.34205375300009, -14.392406535999942], [-67.34170394000007, -14.393750204999943], [-67.3403359690001, -14.39487962999992], [-67.34033444000006, -14.395086716999959], [-67.34044468200007, -14.395501675999975], [-67.3404332200001, -14.397054808999934], [-67.33986137500007, -14.397775624999946], [-67.33906522200012, -14.398184223999971], [-67.33815882800009, -14.398177860999962], [-67.33612404000009, -14.397542281999952], [-67.3348792880001, -14.397326441999947], [-67.33340717300008, -14.397212526999954], [-67.33216549800007, -14.396582499999962], [-67.3310371300001, -14.395953265999932], [-67.33002283100008, -14.395221288999942], [-67.32911953100007, -14.394800721999957], [-67.32810447600009, -14.39417227599993], [-67.32720272400009, -14.393544625999931], [-67.32663624400011, -14.39354062399996], [-67.3261830580001, -14.393537418999914], [-67.3251633920001, -14.393530206999971], [-67.32448515800009, -14.393318320999967], [-67.32380847000009, -14.392899338999934], [-67.3231317830001, -14.392480364999923], [-67.3224566420001, -14.391854303999928], [-67.32200809700012, -14.391229847999965], [-67.32167439200012, -14.390399109999965], [-67.32088828700009, -14.38946162199993], [-67.32032259100012, -14.38935405799997], [-67.3190810020001, -14.388723968999935], [-67.31749954000011, -14.388091460999927], [-67.31727760100009, -14.387468607999953], [-67.31693772300011, -14.387466193999945], [-67.31557821200008, -14.387456525999927], [-67.31501562700012, -14.386934799999944], [-67.31434207800012, -14.386101636999953], [-67.31310052600011, -14.385471521999921], [-67.31174180600013, -14.385358288999939], [-67.31027290900008, -14.38483009199995], [-67.30971189800007, -14.384101261999936], [-67.30915244600013, -14.383165357999928], [-67.3080195470001, -14.383157268999975], [-67.30688587000012, -14.383252709999953], [-67.30608816500009, -14.383868290999926], [-67.30506231600012, -14.384689308999945], [-67.3042677220001, -14.384890716999955], [-67.3038129990001, -14.385094553999963], [-67.30245729900012, -14.386432554999935], [-67.3012397430001, -14.387954742999952], [-67.30066722700012, -14.388348669999973], [-67.29969502400012, -14.388433548999943], [-67.29865698100012, -14.388364849999952], [-67.29758728400013, -14.388050979999939], [-67.29634917100013, -14.387858365999925], [-67.29514548400014, -14.38754352399995], [-67.29437591400009, -14.387415513999931], [-67.29363891300008, -14.387410203999924], [-67.29303567700012, -14.38743646899995], [-67.2925662110001, -14.387494327999937], [-67.29206301600014, -14.387582545999969], [-67.29179431800011, -14.38767246299993], [-67.2914581590001, -14.387823126999931], [-67.29108756100014, -14.388096018999926], [-67.29061693200013, -14.388306945999938], [-67.29014793000009, -14.388303559999928], [-67.2898464310001, -14.388301382999925], [-67.28941116200012, -14.388267626999932], [-67.2890100880001, -14.388142251999964], [-67.28850875200014, -14.387985538999933], [-67.2880406840001, -14.387859688999972], [-67.28760682300013, -14.387642219999963], [-67.2871387550001, -14.38751636599994], [-67.28663531500011, -14.38763519199994], [-67.28619889000014, -14.387754510999958], [-67.28569406000011, -14.388057033999914], [-67.2852203910001, -14.388665960999948], [-67.28488328600011, -14.388939082999958], [-67.28444498000007, -14.389303328999961], [-67.2840078420001, -14.389514484999935], [-67.2834364730001, -14.389755285999955], [-67.28310054100011, -14.389875327999953], [-67.28248538000013, -14.38998221599996], [-67.28191228800011, -14.389787929999951], [-67.28150689900014, -14.389685396999921], [-67.28120044000013, -14.389601693999959], [-67.28102219500009, -14.389591342999939], [-67.28091281900015, -14.389644869999916], [-67.28082262400011, -14.389780020999972], [-67.28082124100013, -14.38996109099997], [-67.28084868300016, -14.39026005599992], [-67.28172291600015, -14.39232424099992], [-67.2821870660001, -14.393812409999947], [-67.28226903300015, -14.394754584999927], [-67.28223620500009, -14.395161768999955], [-67.28211352400011, -14.39565882699997], [-67.28179251200015, -14.396181613999932], [-67.28129242500012, -14.396802682999974], [-67.28107234000014, -14.397081747999945], [-67.28078326400014, -14.397670418999944], [-67.28019865000016, -14.398978954999954], [-67.27992515900013, -14.399764633999949], [-67.27977053600011, -14.400551176999937], [-67.27958895700016, -14.400975380999963], [-67.27946863200015, -14.401164632999933], [-67.27896090200011, -14.401486873999941], [-67.27835508600015, -14.401681649999942], [-67.27797808900016, -14.401751328999964], [-67.27760128900013, -14.401793858999945], [-67.27727410000011, -14.401827691999928], [-67.27691733200015, -14.401843197999925], [-67.27662983200014, -14.401868261999924], [-67.27644125900014, -14.401912161999958], [-67.2761335390001, -14.401991397999936], [-67.2758950150001, -14.402089250999946], [-67.27561659300011, -14.402223028999963], [-67.27538812200015, -14.402302841999918], [-67.27501947300016, -14.40222321299994], [-67.27487157000013, -14.40213158999995], [-67.27469338600014, -14.402112187999927], [-67.27446560900012, -14.402101470999966], [-67.27424766600012, -14.40209988199994], [-67.27400949900016, -14.402152471999944], [-67.27378039100012, -14.402313757999927], [-67.27360089400013, -14.402466367999972], [-67.27339028900013, -14.402799810999953], [-67.27322878900014, -14.40318794099993], [-67.27309638900014, -14.403657760999966], [-67.27285620200013, -14.403972883999918], [-67.27211970500014, -14.404411131999938], [-67.2707244980001, -14.405478316999949], [-67.2705240670001, -14.405775625999977], [-67.27040267700009, -14.406100668999951], [-67.27040065700015, -14.406363212999949], [-67.27038859400011, -14.406643783999966], [-67.27031764200012, -14.40685149599993], [-67.27010546200012, -14.40693542599996], [-67.26990628400011, -14.407069757999958], [-67.26988507400011, -14.407250663999937], [-67.26976459000014, -14.407457991999928], [-67.26974330900013, -14.407647952999964], [-67.26966266400011, -14.407828414999923], [-67.26953283300014, -14.407963253999968], [-67.26937376300015, -14.408034512999956], [-67.26921525800013, -14.408033351999956], [-67.26904677400012, -14.408041174999932], [-67.26886789600013, -14.408112288999959], [-67.26865936300014, -14.408174127999922], [-67.26844086400013, -14.408244959999914], [-67.2682622580001, -14.40827985899994], [-67.26802429200012, -14.408305274999966], [-67.26782525200014, -14.40842150299994], [-67.2676546720001, -14.408700884999954], [-67.26750467500011, -14.408880846999962], [-67.26745500100014, -14.408898586999948], [-67.26732579700011, -14.408951959999959], [-67.26720621600015, -14.409041608999917], [-67.26718570300011, -14.40913199299994], [-67.2672146520001, -14.40923177799992], [-67.26724375200013, -14.409313469999974], [-67.26730221300011, -14.409440638999955], [-67.26733088300011, -14.409576637999956], [-67.2673298350001, -14.40971242799996], [-67.26725957900015, -14.409829597999925], [-67.26718025600013, -14.409838063999912], [-67.26706137400015, -14.409837192999921], [-67.26690307900014, -14.409808872999964], [-67.26677464100015, -14.409762668999953], [-67.26663671200015, -14.409662075999945], [-67.26646871500013, -14.409606533999973], [-67.26627058000014, -14.409605081999914], [-67.26615128700013, -14.409658516999961], [-67.26604097900012, -14.409829711999965], [-67.26598997900014, -14.410019444999925], [-67.26590897900013, -14.410245174999929], [-67.26577788600012, -14.410542957999949], [-67.26553823300014, -14.410785627999918], [-67.2651403530001, -14.410990918999959], [-67.26485050000014, -14.411106666999952], [-67.22817488000018, -14.456690161999964], [-67.14584915300023, -14.55011740999991], [-67.09931148600027, -14.599787745999926], [-67.09357222800028, -14.605942261999905], [-67.08845019900029, -14.613513589999947], [-67.07624077900033, -14.632197264999924], [-67.07371865500028, -14.636113329999919], [-67.07439408600031, -14.63820518799995], [-67.07442154000027, -14.639690014999907], [-67.07417782400027, -14.640186754999924], [-67.07445340600032, -14.641413094999931], [-67.0757311710003, -14.642129393999909], [-67.07527106400028, -14.644599801999941], [-67.07556032800028, -14.646564600999941], [-67.07509567000028, -14.648788857999913], [-67.07514122800029, -14.651250397999924], [-67.07571069700032, -14.654687679999924], [-67.07523692900031, -14.656419632999901], [-67.0753281060003, -14.661342709999913], [-67.07711625800026, -14.662296242999936], [-67.07892724400027, -14.664480520999948], [-67.07847176400028, -14.667197087999941], [-67.07849915600029, -14.668674004999936], [-67.0792668420003, -14.669152972999912], [-67.07903682500027, -14.670388180999943], [-67.07984563200026, -14.673082515999946], [-67.08166133100028, -14.67551289299994], [-67.08346792400025, -14.677450942999918], [-67.08374823200026, -14.67892339499994], [-67.08630430800028, -14.68035574699994], [-67.08686040400023, -14.683054480999926], [-67.08667032400025, -14.684058348999917], [-67.08734460800027, -14.685177310999935], [-67.08822744500029, -14.685797843999959], [-67.08831975800025, -14.68685638799995], [-67.08741825500029, -14.689133990999931], [-67.08657880200026, -14.690845074999954], [-67.08663804900029, -14.692121851999932], [-67.08745714000028, -14.693264357999945], [-67.08824735700026, -14.694197407999953], [-67.08851574900027, -14.69533229499994], [-67.0880064700003, -14.69588609999992], [-67.08752437800027, -14.69624078399992], [-67.08711503600024, -14.696703663999905], [-67.08670725400029, -14.696987226999946], [-67.08626137800027, -14.697413937999936], [-67.08614522300026, -14.698058564999915], [-67.08650773100028, -14.698743006999939], [-67.08676158100027, -14.699211356999944], [-67.0867540860003, -14.70007207599994], [-67.08674783900025, -14.700789340999947], [-67.08677875000026, -14.701471046999904], [-67.0867721890003, -14.702224174999946], [-67.0867665670003, -14.702869713999945], [-67.08672409900028, -14.703514947999949], [-67.08653393600028, -14.704194828999942], [-67.08612332600025, -14.70480115899992], [-67.08575205900027, -14.705120885999948], [-67.08548882700025, -14.705728429999942], [-67.08537360000028, -14.706265464999921], [-67.08525805900025, -14.706838363999942], [-67.08517873900027, -14.70748329199993], [-67.08510160700027, -14.707877178999958], [-67.0847671790003, -14.70819720799992], [-67.08458013400028, -14.708518452999934], [-67.08461322600029, -14.708949116999953], [-67.08483179900028, -14.709237848999948], [-67.08508878300026, -14.70934756999995], [-67.08541727000025, -14.709708941999944], [-67.08563459400025, -14.710141126999906], [-67.08570328300029, -14.710715546999927], [-67.08580800500025, -14.711383514999948], [-67.08602376900026, -14.711995015999925], [-67.08634850800027, -14.712786745999926], [-67.0865268020003, -14.713469667999934], [-67.08644873100026, -14.713971144999938], [-67.08604060000025, -14.714290565999917], [-67.0857417580003, -14.71475435199992], [-67.08559061600025, -14.715183491999914], [-67.08540106200026, -14.715791643999957], [-67.08547006300024, -14.716330199999934], [-67.08594720000026, -14.716549338999958], [-67.08646306300024, -14.716553600999905], [-67.08705449500026, -14.71634328999992], [-67.08738455800024, -14.716525344999956], [-67.08756629400025, -14.716813771999949], [-67.08763592600026, -14.717280601999938], [-67.08759188900027, -14.718105152999932], [-67.08766058300024, -14.718679571999903], [-67.08728866600025, -14.719071024999923], [-67.08717437100024, -14.719500469999938], [-67.08698606700024, -14.719965170999933], [-67.08620850700028, -14.720389135999916], [-67.08590934200028, -14.72088878399994], [-67.08597897000028, -14.721355613999929], [-67.08604828600025, -14.721858307999954], [-67.08648702300027, -14.722256456999936], [-67.0870010220003, -14.722475898999939], [-67.08744101200026, -14.72273059399991], [-67.0878813170003, -14.722949424999944], [-67.08821014000026, -14.723274931999956], [-67.08842654200028, -14.723814706999946], [-67.08849711400025, -14.724173946999917], [-67.08838313000025, -14.724567528999927], [-67.08812112400025, -14.725031621999934], [-67.08793218900027, -14.725568047999936], [-67.08726421800027, -14.72610051699994], [-67.08707715800024, -14.726421762999937], [-67.08699751500026, -14.727102553999918], [-67.08706426700027, -14.727899325999921], [-67.08731720700025, -14.728475268999915], [-67.08757045900026, -14.72901534799994], [-67.08767600300027, -14.729590072999914], [-67.08762914100029, -14.730737389999923], [-67.08806476900028, -14.73149417099993], [-67.08861532800026, -14.731749778999898], [-67.08923896300027, -14.732077720999918], [-67.08978952500026, -14.732333325999928], [-67.09022891400028, -14.732659744999957], [-67.09070140400026, -14.73341682599992], [-67.09128663600026, -14.733923775999905], [-67.09179848200024, -14.734394253999916], [-67.09216167800028, -14.735006966999928], [-67.09282155400024, -14.735406931999915], [-67.09337306600027, -14.73555494099996], [-67.09444360600027, -14.735348564999963], [-67.09507225000029, -14.735102679999931], [-67.09558784700023, -14.735142790999905], [-67.09617621100024, -14.735291095999953], [-67.09650568700023, -14.735544868999945], [-67.09657596100028, -14.735939971999912], [-67.09653443800022, -14.736477617999958], [-67.09652945300024, -14.737051431999907], [-67.09663564500023, -14.73755442899992], [-67.09666751100026, -14.738128545999908], [-67.09677339200029, -14.738667404999921], [-67.09706570900023, -14.738956737999938], [-67.09742849200023, -14.739619654999936], [-67.09812150800025, -14.74045027099991], [-67.09851847000027, -14.741421913999918], [-67.09854753900028, -14.74231880199992], [-67.09850290300022, -14.74321508399991], [-67.09823871000026, -14.743930228999929], [-67.09805008900027, -14.744430800999949], [-67.09778807400023, -14.744894902999917], [-67.09719282700024, -14.745535591999934], [-67.09726310500027, -14.745930694999942], [-67.09751733300027, -14.74636317799995], [-67.09788336600026, -14.746653116999909], [-67.09799049800024, -14.747048522999911], [-67.09783934800026, -14.747477670999935], [-67.09717475200024, -14.747615664999932], [-67.09665850200025, -14.747647281999928], [-67.09606636200029, -14.747929332999918], [-67.09540114100025, -14.748139049999942], [-67.09473373300024, -14.748599805999934], [-67.09428431800025, -14.74942101599991], [-67.09420717800027, -14.749814904999916], [-67.09453448500022, -14.750319723999926], [-67.09504824500027, -14.75057501999991], [-67.09563508900028, -14.750902647999942], [-67.09600081400028, -14.75122845399992], [-67.09629158600025, -14.751697104999929], [-67.09625042900025, -14.752191714999963], [-67.09620889600025, -14.752729360999949], [-67.09609521500023, -14.753087082999947], [-67.09568857700027, -14.753227195999933], [-67.09528318600024, -14.753223855999952], [-67.09506019100026, -14.753437212999904], [-67.09509330000027, -14.753867875999935], [-67.09523665600024, -14.75433531399992], [-67.09556522000025, -14.754696679999915], [-67.09596874200027, -14.754915199999951], [-67.09625889400026, -14.75545557899992], [-67.09651375300024, -14.755816335999931], [-67.09695319500027, -14.756142747999924], [-67.09739295100026, -14.756433296999926], [-67.09738983300025, -14.756791929999942], [-67.09720150600027, -14.757256635999944], [-67.09708688900027, -14.757721946999915], [-67.09715810300027, -14.75800946199994], [-67.09734050300024, -14.758226157999937], [-67.09781867800025, -14.75833769299991], [-67.09851798000022, -14.758451046999918], [-67.09884686700025, -14.758776546999941], [-67.09884375000026, -14.759135179999918], [-67.09880253200026, -14.75963696399995], [-67.09879785700025, -14.760174912999934], [-67.09890437000026, -14.760642046999958], [-67.09912176000024, -14.761074225999929], [-67.09945189800028, -14.761256271999951], [-67.09981764500027, -14.761582073999906], [-67.09977705100023, -14.762012130999928], [-67.09955311600028, -14.762333081999918], [-67.09936478700024, -14.762797788999915], [-67.09958218000025, -14.763229967999942], [-67.09968900700022, -14.76366123799992], [-67.09968526700028, -14.764091597999908], [-67.09957158400023, -14.764449321999935], [-67.09912651100025, -14.76476845199993], [-67.09904968200027, -14.765126478999921], [-67.09949039300024, -14.765309434999926], [-67.09985708100028, -14.765527646999926], [-67.10015161600023, -14.765565936999941], [-67.10040898400024, -14.765639784999943], [-67.10066417200022, -14.765964677999916], [-67.10066074500027, -14.766359174999916], [-67.10061921600028, -14.766896821999966], [-67.10057831000023, -14.76736274199991], [-67.10046400200027, -14.767792192999917], [-67.10027629300028, -14.768185172999926], [-67.09983090100026, -14.768540166999948], [-67.09956885400028, -14.769004266999936], [-67.09927026000025, -14.769432199999907], [-67.09900883500023, -14.769824571999921], [-67.09882143300025, -14.77018168699991], [-67.09878114600026, -14.770575879999944], [-67.09881581900027, -14.770827226999913], [-67.09922124200024, -14.770830565999946], [-67.09962604300024, -14.770905628999948], [-67.09988217000024, -14.771122932999937], [-67.09995276600023, -14.771482172999963], [-67.09994871300024, -14.771948395999944], [-67.09990842700023, -14.772342588999933], [-67.09964886800027, -14.772519781999938], [-67.09964637400027, -14.772806687999923], [-67.09986595700025, -14.772987824999946], [-67.10012395700024, -14.772989947999955], [-67.10052938600023, -14.772993284999906], [-67.10108286600024, -14.772926106999911], [-67.10156263100026, -14.77285832199991], [-67.10204301900022, -14.772718807999953], [-67.10263491300024, -14.772472612999916], [-67.10337298800022, -14.772371078999955], [-67.1036294320002, -14.772552516999928], [-67.10362569800024, -14.772982876999924], [-67.10362227400026, -14.773377373999935], [-67.10358323900027, -14.773628114999934], [-67.10352740600024, -14.774115432999942], [-67.10363331000025, -14.77465429199996], [-67.10374077000023, -14.775013833999916], [-67.10399441600026, -14.77551804199991], [-67.10417590400027, -14.77584232599995], [-67.10428336600023, -14.776201867999909], [-67.10446516600022, -14.776490288999957], [-67.10461073000022, -14.776706679999942], [-67.10482845600022, -14.777102992999954], [-67.10478879800024, -14.77742546199992], [-67.1046379440002, -14.777818747999941], [-67.10445147600022, -14.778068277999957], [-67.10408258400025, -14.778101113999963], [-67.10396952000023, -14.77838711299993], [-67.10418817900022, -14.778675836999954], [-67.10466640200025, -14.778787361999923], [-67.10496002300022, -14.778933236999908], [-67.10562191600025, -14.77911800199994], [-67.10580496300025, -14.779262968999921], [-67.10609827500025, -14.779444706999966], [-67.10657619000023, -14.779592091999952], [-67.10716840900022, -14.779310022999912], [-67.10750168800024, -14.77913342599991], [-67.10801894600024, -14.778994203999936], [-67.10864833200024, -14.77867656999994], [-67.10920555100023, -14.778179011999935], [-67.10961099100024, -14.778182332999943], [-67.1102375800002, -14.778187464999958], [-67.11071580700025, -14.77829897999991], [-67.11082266000022, -14.77873024699992], [-67.11096761200025, -14.779018361999913], [-67.11148114900026, -14.77930949399994], [-67.11207150300027, -14.77924259299992], [-67.11251411400023, -14.779210347999912], [-67.11254911400022, -14.77942582999996], [-67.11250884700024, -14.779820027999941], [-67.11232114600023, -14.780213019999945], [-67.11235490500025, -14.780571956999928], [-67.11264791500025, -14.78078954999993], [-67.11290499600022, -14.780899250999916], [-67.1131599090002, -14.781259996999923], [-67.11326769800021, -14.781583672999929], [-67.1132655290002, -14.781834717999956], [-67.11318995300022, -14.78204929599995], [-67.11311406600026, -14.782299738999924], [-67.11322154500027, -14.782659277999912], [-67.11350823900021, -14.782754874999954], [-67.11380404100025, -14.782649694999956], [-67.11413546300024, -14.78268827099991], [-67.11465148900025, -14.78269248799993], [-67.1151328240002, -14.78244535799993], [-67.11543140900021, -14.782017403999916], [-67.11583654800022, -14.782056578999955], [-67.11590841000024, -14.78227236299993], [-67.11586938600026, -14.782523106999959], [-67.11590129500023, -14.783097225999914], [-67.11641794200021, -14.78302971199995], [-67.11686179700023, -14.782854004999912], [-67.11708140600022, -14.7830351289999], [-67.11748469300021, -14.783289483999944], [-67.11803727300024, -14.78332985799993], [-67.11851551500023, -14.78344135699994], [-67.11888194600026, -14.783695408999938], [-67.11902691100019, -14.783983519999914], [-67.1195051570002, -14.784095017999942], [-67.12016862600022, -14.78410042599993], [-67.12031297700024, -14.784460263999936], [-67.12104955000022, -14.784537996999957], [-67.12123168700025, -14.78479054499994], [-67.12174710400022, -14.78486647399994], [-67.12215656800025, -14.784403546999933], [-67.12241520100024, -14.784333918999936], [-67.12252331400025, -14.78462172999995], [-67.1233683100002, -14.784951401999914], [-67.12399307500026, -14.78517168199992], [-67.12436444400025, -14.784851904999961], [-67.12458868100025, -14.784495064999915], [-67.12473796700026, -14.784281080999937], [-67.12510964100021, -14.783925438999955], [-67.12562629000021, -14.78385790599996], [-67.12625413200024, -14.783719539999915], [-67.12669829200021, -14.783507949999924], [-67.1271062060002, -14.783224330999909], [-67.12777244200024, -14.782906941999938], [-67.12828939600021, -14.782803537999925], [-67.1287704110002, -14.782592240999955], [-67.12910429500019, -14.782343883999923], [-67.12925511100022, -14.781950576999959], [-67.12955305600022, -14.781594328999946], [-67.12985038600024, -14.781309807999937], [-67.1299287100002, -14.780772446999928], [-67.13070520600021, -14.780491807999944], [-67.13118253300021, -14.780710872999952], [-67.13114260500024, -14.781069213999942], [-67.1311023700002, -14.781463417999907], [-67.1310993020002, -14.781822057999918], [-67.13116995200019, -14.782181293999926], [-67.1314623710002, -14.782470593999939], [-67.1319040710002, -14.782545903999939], [-67.13242163500021, -14.78237076199996], [-67.13268271700022, -14.782014210999915], [-67.13305192400023, -14.781945465999945], [-67.13360573300022, -14.781842346999934], [-67.13375623400023, -14.781484899999933], [-67.13368527400021, -14.781161527999915], [-67.13391133100023, -14.780589491999919], [-67.1343170870002, -14.780556907999916], [-67.1350536580002, -14.780634594999965], [-67.13560562600023, -14.780746655999948], [-67.1360817360002, -14.781109166999933], [-67.13678297900023, -14.78100723199996], [-67.13708030000024, -14.78072269999994], [-67.1376362460002, -14.780368522999911], [-67.13822660300022, -14.780301553999927], [-67.13903689300021, -14.780379822999954], [-67.1397000530002, -14.780421037999908], [-67.14036290900022, -14.780498113999938], [-67.14054445700022, -14.780822376999922], [-67.14032055300022, -14.781143370999915], [-67.14013381400021, -14.781428797999958], [-67.1400201810002, -14.781786547999936], [-67.14027514400023, -14.782147269999923], [-67.14090114600022, -14.782224047999913], [-67.14145525800019, -14.782085045999942], [-67.1420815650002, -14.78212595699993], [-67.1425595200002, -14.782273271999928], [-67.1428894260002, -14.782491127999924], [-67.14292262600021, -14.782921793999922], [-67.14258814400019, -14.783241900999926], [-67.14243765500022, -14.783599355999957], [-67.14287722800023, -14.783925693999933], [-67.14339387600019, -14.783858119999921], [-67.14366715300021, -14.783366156999916], [-67.14437414000021, -14.783312066999923], [-67.14467952800022, -14.783523744999947], [-67.14501309400022, -14.784034537999945], [-67.14534615400022, -14.784605104999953], [-67.14568048400021, -14.785026236999945], [-67.14620114700018, -14.785209755999956], [-67.14666240700019, -14.785153683999953], [-67.1469723640002, -14.784827395999953], [-67.1471609760002, -14.784320799999923], [-67.14753160300019, -14.784084664999947], [-67.14814543000018, -14.784149370999936], [-67.1485432260002, -14.784331897999927], [-67.14894026400022, -14.784604084999941], [-67.14958582200019, -14.784549485999932], [-67.1502009160002, -14.784464752999932], [-67.15041466800018, -14.784615911999918], [-67.1505951720002, -14.785065692999959], [-67.15086706800021, -14.78560587399992], [-67.15135525000018, -14.785998343999928], [-67.15199347700019, -14.78681046099994], [-67.1529101870002, -14.787385694999935], [-67.15236158900018, -14.78805801799994], [-67.15237992600022, -14.78807350199996], [-67.1458255850002, -14.797598664999935], [-67.14526706300019, -14.798251725999913], [-67.13061058200023, -14.810758270999914], [-67.12819850300022, -14.812591769999905], [-67.12714425300024, -14.813718963999953], [-67.12418447100023, -14.817783617999945], [-67.12152032700024, -14.821754990999958], [-67.11851170400023, -14.826043753999938], [-67.11796698000022, -14.827381486999949], [-67.1176737930002, -14.829227031999924], [-67.11739697100022, -14.836661590999917], [-67.11693801500023, -14.846577844999935], [-67.11675448300024, -14.853661744999933], [-67.11628814600026, -14.858859458999959], [-67.11655623800026, -14.861642577999907], [-67.11767771100021, -14.865456472999918], [-67.11824958800024, -14.868785515999928], [-67.11759916300024, -14.871363532999935], [-67.11656325500023, -14.873732037999934], [-67.11554788000022, -14.877182366999913], [-67.11532160600022, -14.88367956599994], [-67.11493283000026, -14.893333495999952], [-67.11478209600021, -14.895438745999945], [-67.11415636500026, -14.897645297999917], [-67.11307149100024, -14.900787697999911], [-67.11218217500026, -14.903909761999934], [-67.11154797400023, -14.907617441999928], [-67.11042303200024, -14.910327693999912], [-67.10792402700024, -14.917700630999928], [-67.10416852400026, -14.929239440999915], [-67.09998911400025, -14.942039989999936], [-67.09918839700025, -14.944492185999913], [-67.09695153900026, -14.951531190999932], [-67.09645993000026, -14.952998807999942], [-67.09575786100027, -14.955094675999899], [-67.09661892100024, -14.954919217999912], [-67.09701344600023, -14.954802955999957], [-67.09731086800024, -14.95454242199995], [-67.09772998500023, -14.954426363999952], [-67.09809781000023, -14.954548978999949], [-67.0984662670002, -14.954599868999912], [-67.09885847400021, -14.954746596999916], [-67.0989782740002, -14.95510624799991], [-67.0992218770002, -14.955371289999938], [-67.09956532300025, -14.955469789999913], [-67.09998528300024, -14.95525809299992], [-67.10006284900025, -14.954828354999934], [-67.10028733400024, -14.954471568999944], [-67.10080502700025, -14.954332413999937], [-67.10124684100025, -14.954431730999914], [-67.10148960500025, -14.954792402999916], [-67.10170714700023, -14.955224596999914], [-67.10197492500025, -14.95553765799995], [-67.10241737200019, -14.955565245999919], [-67.10298614400021, -14.955211319999902], [-67.1033327450002, -14.954951185999937], [-67.1036793450002, -14.95469105199991], [-67.10412494100022, -14.954360008999952], [-67.10461846200023, -14.954172823999937], [-67.10515948400023, -14.954177314999962], [-67.10526058200024, -14.95386732099994], [-67.1053145940002, -14.953317831999955], [-67.10529420000022, -14.952839455999923], [-67.10542051700024, -14.952457938999917], [-67.10611013700024, -14.952344108999956], [-67.10675015200023, -14.952277684999936], [-67.10726804800025, -14.952114605999935], [-67.10773675900025, -14.951951118999922], [-67.10815670500021, -14.951739405999922], [-67.10845557800023, -14.95131149599994], [-67.10878179500024, -14.950681768999956], [-67.10927912500021, -14.950058239999958], [-67.10962144700021, -14.949582866999926], [-67.10990150300022, -14.949196640999938], [-67.11021177500025, -14.94887044099992], [-67.11052047600025, -14.948723554999935], [-67.11110635300022, -14.948519185999928], [-67.11153827100023, -14.948343429999946], [-67.11200092900025, -14.948167926999906], [-67.11249380200022, -14.94805244899991], [-67.1128319330002, -14.948055242999926], [-67.11304632400024, -14.948146677999922], [-67.11325758100023, -14.948596743999904], [-67.11353084000021, -14.948987545999936], [-67.1139570130002, -14.949469273999943], [-67.11426101300023, -14.94986032999996], [-67.11438057700022, -14.95024986099995], [-67.11453062000024, -14.950669532999916], [-67.11483697300022, -14.950791613999947], [-67.11526863300023, -14.950645736999926], [-67.11569924900024, -14.950619402999939], [-67.1162202580002, -14.950803030999937], [-67.11674022600019, -14.951106199999947], [-67.1171077990002, -14.951258671999916], [-67.11750480900022, -14.951560825999907], [-67.1175295530002, -14.95224845599993], [-67.1176165590002, -14.952846934999949], [-67.11785935200024, -14.953207592999922], [-67.1182904950002, -14.953121482999942], [-67.11872293900021, -14.952885941999947], [-67.11918430000023, -14.952859854999902], [-67.11955318100021, -14.952862892999956], [-67.11995097900021, -14.953075385999945], [-67.12025681800023, -14.953257232999917], [-67.12056552000021, -14.953110333999954], [-67.12096722300024, -14.952874534999953], [-67.1214291050002, -14.952788670999935], [-67.12185686500024, -14.953091071999935], [-67.1217305230002, -14.953478578999963], [-67.12129808000023, -14.953714124999955], [-67.12104825400021, -14.954160390999938], [-67.1209831310002, -14.954578288999912], [-67.1213189330002, -14.95485004599991], [-67.12190325900022, -14.954824964999933], [-67.12236488500022, -14.954768986999952], [-67.1227955100002, -14.95474263999994], [-67.12291821100021, -14.954773536999907], [-67.12291301100024, -14.95537125699995], [-67.12278615000022, -14.955818536999953], [-67.12306099400021, -14.95603001399995], [-67.12343014100023, -14.95600316099994], [-67.12361900200018, -14.955496613999953], [-67.1240519680002, -14.95520129099996], [-67.12436093100021, -14.955024499999965], [-67.12473059600019, -14.954937872999935], [-67.1249421420002, -14.955358044999956], [-67.12549599100022, -14.95530281699994], [-67.12574399100022, -14.95506574699991], [-67.1261751370002, -14.95497962199992], [-67.1270671290002, -14.954927164999937], [-67.12755871700018, -14.954961086999935], [-67.1282016750002, -14.95526524199992], [-67.12847419300023, -14.955745687999961], [-67.12863036200021, -14.956171380999915], [-67.1288116960002, -14.956531525999916], [-67.12886980900022, -14.956920549999936], [-67.12889821600022, -14.957189776999922], [-67.12917306900017, -14.957401246999938], [-67.1297561100002, -14.957525577999924], [-67.13018544600023, -14.957648648999951], [-67.13036807800019, -14.957859362999937], [-67.1304259340002, -14.958278271999953], [-67.13073075500019, -14.958579651999953], [-67.13094231700019, -14.958999819999956], [-67.13090820900022, -14.959388087999946], [-67.13071987700017, -14.959834868999941], [-67.13013398100021, -14.960039287999942], [-67.1298237180002, -14.960365515999952], [-67.12985005400023, -14.96087383199992], [-67.13085189600021, -14.961629245999958], [-67.13158430700021, -14.962256919999948], [-67.1320712020002, -14.962834760999938], [-67.1322617370002, -14.963553639999917], [-67.1322551100002, -14.964318724999925], [-67.1320029610002, -14.965033979999907], [-67.13224351300018, -14.965657623999935], [-67.13317476000023, -14.966047816999923], [-67.1336604250002, -14.96676910999995], [-67.1337521780002, -14.96753499999992], [-67.13330410500022, -14.968153010999949], [-67.13280767000022, -14.96867498099992], [-67.13250508500018, -14.969533284999944], [-67.13249555700021, -14.970633095999949], [-67.13293079700021, -14.971497440999915], [-67.13331975100023, -14.97202665899992], [-67.13390711800021, -14.972366213999948], [-67.13454450500019, -14.972610534999928], [-67.13532946000022, -14.972856061999932], [-67.1364603960002, -14.972913127999936], [-67.1368522550002, -14.973107614999924], [-67.13719244500021, -14.973588606999936], [-67.13733464000019, -14.97421144599995], [-67.13781909700022, -14.97507618599995], [-67.13776453400021, -14.975697417999964], [-67.1377083180002, -14.976509920999924], [-67.13775130800019, -14.977227592999935], [-67.13809026700017, -14.977852037999966], [-67.13813367100016, -14.978521890999945], [-67.13832382000021, -14.979288584999932], [-67.13881076900022, -14.979866417999954], [-67.13894974600021, -14.980435430999918], [-67.1392845770002, -14.980826712999926], [-67.13940678000017, -14.980917375999965], [-67.13980336000022, -14.981279272999899], [-67.14016945400022, -14.981611031999917], [-67.1402895940002, -14.981940783999951], [-67.14037821500017, -14.982359943999922], [-67.14028288300017, -14.982717825999925], [-67.14024826700017, -14.98316586899992], [-67.14055313500018, -14.983467239999962], [-67.14119722700019, -14.983651824999965], [-67.14205627700017, -14.98386804799996], [-67.14276237800021, -14.983993357999946], [-67.14334498500018, -14.98417743599996], [-67.14401879700019, -14.984481807999932], [-67.1445701470002, -14.984725404999935], [-67.1450876630002, -14.98532738599992], [-67.14541916600018, -14.986107182999925], [-67.1455072830002, -14.986586114999948], [-67.14537518800017, -14.986987945999923], [-67.1452231090002, -14.987450565999923], [-67.14494176400018, -14.987986266999924], [-67.14417080900017, -14.988248983999924], [-67.14370627600016, -14.98863374799991], [-67.14345541400019, -14.989199583999937], [-67.1434182240002, -14.989946489999946], [-67.14357342100021, -14.99049052699995], [-67.14397277200021, -14.991246968999958], [-67.1440425410002, -14.99171379699991], [-67.14396473000016, -14.992179420999925], [-67.1435923750002, -14.992570913999923], [-67.14325474700019, -14.99321374999992], [-67.14317569600018, -14.99382282799995], [-67.14350249600017, -14.994435214999937], [-67.1439756430002, -14.995192257999959], [-67.14445095900021, -14.995698255999953], [-67.14466491200017, -14.99656078599996], [-67.14381135300016, -14.997127685999924], [-67.14377259900021, -14.997342565999913], [-67.1439902640002, -14.997774732999948], [-67.14472788000018, -14.997816609999962], [-67.14561277200018, -14.997895550999916], [-67.1460911880002, -14.998042910999956], [-67.1463104030002, -14.998295757999909], [-67.14597431800019, -14.998759279999923], [-67.14549188100017, -14.999078145999913], [-67.14500913400019, -14.999432873999966], [-67.1447846610002, -14.99978970599993], [-67.14478156800021, -15.000148340999921], [-67.1449983080002, -15.000688097999944], [-67.14536449300022, -15.001013875999925], [-67.1457657210002, -15.001555134999919], [-67.1462041560002, -15.002060830999913], [-67.1463474160002, -15.002564121999946], [-67.1464906780002, -15.003067413999917], [-67.1469319000002, -15.003250335999928], [-67.14763449200018, -15.00307672399996], [-67.1481175530002, -15.002686127999919], [-67.14885549700017, -15.002692130999927], [-67.1495540750002, -15.002984738999915], [-67.15001873400017, -15.00301720899993], [-67.15083078200017, -15.002987940999938], [-67.15160562600015, -15.002994234999944], [-67.1520099550002, -15.003176847999937], [-67.1520809760002, -15.003500219999966], [-67.15189125000016, -15.004108403999949], [-67.15173595300017, -15.005003797999942], [-67.15169473900015, -15.005505588999926], [-67.1520935260002, -15.006333748999946], [-67.15245788100019, -15.006874698999962], [-67.15318998800016, -15.007562098999909], [-67.15370225000021, -15.008068381999959], [-67.15421513000017, -15.008502936999934], [-67.1545791870002, -15.00907974899995], [-67.15505578900017, -15.009442275999941], [-67.15553362200016, -15.00966134799994], [-67.15623500200019, -15.009631164999956], [-67.15656924300019, -15.009382809999963], [-67.1569391500002, -15.00927820799994], [-67.15756673200018, -15.009247423999952], [-67.15748494200015, -15.010179283999923], [-67.15740591800015, -15.01078837099991], [-67.15780688700015, -15.01136547699996], [-67.15835576000016, -15.011907914999925], [-67.15916508000021, -15.012201394999964], [-67.15990060500019, -15.01249427499992], [-67.16067272400015, -15.012823315999958], [-67.16140794600017, -15.013152054999958], [-67.16221819600018, -15.013337933999923], [-67.16288177000017, -15.013415025999933], [-67.16897412800014, -15.014250815999947], [-67.17943107300013, -15.014095634999919], [-67.19046580700014, -15.018368141999915], [-67.20254309800015, -15.01571411299993], [-67.20517007000014, -15.010474354999912], [-67.21127095200013, -15.00236289599996], [-67.21694828100016, -15.001684943999965], [-67.22285322300013, -15.001114797999934], [-67.22350667900012, -14.998430517999946], [-67.22821499300011, -14.99737683099993], [-67.2308655110001, -14.998143483999952], [-67.23203898600013, -14.998269707999938], [-67.23494377300011, -14.997601251999972], [-67.2406633260001, -14.998506338999952], [-67.24252583600013, -14.99943122599994], [-67.2435479550001, -15.000133796999924], [-67.2435544420001, -15.000142216999949], [-67.24381643600013, -15.000508578999918], [-67.24407821900012, -15.000828972999944], [-67.2442220300001, -15.00121890699994], [-67.24427163300014, -15.001701228999917], [-67.24446286600009, -15.002113906999957], [-67.24477207300014, -15.002457042999927], [-67.24508117900011, -15.002777204999962], [-67.24541404400013, -15.00312022599996], [-67.24581757200012, -15.00339394899992], [-67.24626699800011, -15.003368704999943], [-67.24666867300013, -15.003251786999943], [-67.24707013400011, -15.003088900999943], [-67.24747158600012, -15.00292602199993], [-67.24789669400012, -15.002763019999966], [-67.24827437900011, -15.002577272999922], [-67.24877069000011, -15.002459866999963], [-67.24924421200011, -15.00252641699995], [-67.24974107700011, -15.002523900999948], [-67.25019027900014, -15.002452690999966], [-67.25061604800014, -15.00242755899994], [-67.25108913700011, -15.002402188999941], [-67.2515859920001, -15.00239966799994], [-67.25201198400013, -15.002420496999937], [-67.25227388300014, -15.002763867999919], [-67.25270107700014, -15.003037461999943], [-67.25305718500015, -15.003288430999918], [-67.2534135080001, -15.003585364999928], [-67.25386315600012, -15.003606065999959], [-67.25428959500009, -15.003718799999934], [-67.25471646100014, -15.003923456999916], [-67.25514311200014, -15.004082146999952], [-67.25557009000008, -15.004309776999937], [-67.2559030940001, -15.00467576699997], [-67.25616489500013, -15.004996149999942], [-67.2564741250001, -15.00533927499992], [-67.25668905000013, -15.005751827999962], [-67.25711515900011, -15.005795621999924], [-67.25754104800009, -15.005793449999935], [-67.25799048000007, -15.005768183999965], [-67.25841603400008, -15.00569707599992], [-67.25888890700011, -15.005625733999963], [-67.25931512100013, -15.005692499999947], [-67.25974123300009, -15.005736290999938], [-67.26019099900012, -15.005779953999925], [-67.26061710200011, -15.005823741999947], [-67.2610436520001, -15.005959446999944], [-67.2614468730001, -15.006164210999934], [-67.26185031800011, -15.006414931999918], [-67.2622065570001, -15.006688871999916], [-67.26253924200009, -15.00698591299993], [-67.26284859800009, -15.007352012999934], [-67.26315795600013, -15.007718101999949], [-67.26341988100009, -15.008061463999965], [-67.26370591300011, -15.008496623999966], [-67.2639681740001, -15.008908923999963], [-67.2642539930001, -15.009298124999923], [-67.26458701200008, -15.00966409499994], [-67.2649670270001, -15.009960889999931], [-67.26534660400009, -15.010165764999947], [-67.26579704700012, -15.010347302999937], [-67.2662005060001, -15.010598017999925], [-67.26662762200013, -15.010848605999959], [-67.26712516600011, -15.010983936999928], [-67.2675279630001, -15.011096773999938], [-67.2679544150001, -15.011209482999949], [-67.26838075700013, -15.011299216999921], [-67.2689018560001, -15.011411442999922], [-67.26935197800012, -15.011524031999949], [-67.26980209100012, -15.011636618999932], [-67.2701345780001, -15.011887690999965], [-67.2704439550001, -15.012253782999935], [-67.27070601000011, -15.01262011299996], [-67.27077922700008, -15.013079340999974], [-67.27085233000011, -15.013515587999946], [-67.27104384900011, -15.013974207999969], [-67.27123491800009, -15.01434089999997], [-67.27142633600008, -15.014776533999953], [-67.27154709300012, -15.015281475999917], [-67.27178593900013, -15.015739849999912], [-67.27218985700009, -15.016082471999924], [-67.2725926680001, -15.016195300999973], [-67.27301857800009, -15.016193111999932], [-67.27344504600009, -15.016305810999933], [-67.27387117600009, -15.016349578999943], [-67.27415355100013, -15.016026396999955], [-67.27419875400008, -15.015589539999938], [-67.27419662200012, -15.015152936999971], [-67.27426525700011, -15.014669993999963], [-67.27466682800011, -15.01453004299998], [-67.27495244700012, -15.014873274999951], [-67.2752150790001, -15.015354498999942], [-67.27528808000008, -15.015767769999954], [-67.27540840300011, -15.016180783999962], [-67.2754577370001, -15.01659417399996], [-67.27560172800011, -15.017007068999922], [-67.2759578800001, -15.017258014999966], [-67.27638390600012, -15.017278793999928], [-67.27683414800012, -15.017414352999925], [-67.27730784100012, -15.017503824999944], [-67.2777565150001, -15.01731766299996], [-67.27792012800008, -15.016903173999925], [-67.27791787800011, -15.01644358699996], [-67.27815270800006, -15.016074689999982], [-67.27858533100012, -15.01591374499996], [-67.27909421300008, -15.016427844999948], [-67.27981055500011, -15.017097588999931], [-67.27992262300008, -15.017681112999963], [-67.2808397510001, -15.018347067999954], [-67.28159753400008, -15.018576794999928], [-67.28246252600009, -15.019146117999968], [-67.28261700600008, -15.019338415999973], [-67.28273395600009, -15.020165859999956], [-67.28275538900012, -15.021239117999917], [-67.28301513100008, -15.021673443999925], [-67.28367351400011, -15.021953837999938], [-67.28334651100006, -15.023180079999962], [-67.28360528500009, -15.02356561999993], [-67.28406191600011, -15.023801016999977], [-67.28416913100007, -15.024140612999918], [-67.28367205000008, -15.024394007999941], [-67.28307067700008, -15.024454159999939], [-67.28318276400007, -15.025037678999968], [-67.28319250900007, -15.025525523999923], [-67.2827002960001, -15.026022840999927], [-67.28305946600007, -15.026406484999924], [-67.28341668800012, -15.026692560999942], [-67.2836330680001, -15.027469322999925], [-67.28394302200009, -15.027902696999936], [-67.2847481140001, -15.027985102999926], [-67.28571940100007, -15.02884521099997], [-67.28652937400007, -15.02917153099997], [-67.28696650700012, -15.02843123399997], [-67.28721358500009, -15.028231355999925], [-67.28741827300009, -15.028422698999963], [-67.28722627100008, -15.028865549999969], [-67.2873373980001, -15.029400278999946], [-67.28831400200006, -15.02994153199994], [-67.28874461800008, -15.028571246999935], [-67.28917210200008, -15.027847269999928], [-67.29026228400006, -15.02711076799993], [-67.29162235300011, -15.026977667999963], [-67.29361403000009, -15.027118969999938], [-67.29553924300008, -15.027619455999957], [-67.2978780530001, -15.028541624999933], [-67.29986665700007, -15.030365259999929], [-67.30115720700007, -15.032273691999919], [-67.30186014200007, -15.034264844999933], [-67.3026092560001, -15.036720439999945], [-67.3028625070001, -15.038326376999965], [-67.30252964900006, -15.03957833199995], [-67.30166210900008, -15.040396580999975], [-67.3009112310001, -15.041155344999934], [-67.30015805000005, -15.041799610999918], [-67.30011293600006, -15.042487717999958], [-67.3008394060001, -15.043447543999942], [-67.30190784400008, -15.04382816899993], [-67.30285731300006, -15.044153775999964], [-67.30379872800006, -15.04407863599992], [-67.30437517100006, -15.04343771499997], [-67.30488694700006, -15.042511666999916], [-67.30569786900008, -15.041809021999928], [-67.30691769900005, -15.040926797999926], [-67.30784527500009, -15.040164661999935], [-67.30877630000009, -15.039574268999951], [-67.3098921080001, -15.039381254999954], [-67.31094785200008, -15.039132107999919], [-67.31217455400008, -15.038593352999944], [-67.31309863900009, -15.037659458999931], [-67.31450320200008, -15.03717458399995], [-67.31532560100011, -15.037044395999931], [-67.31650721200009, -15.037193721999921], [-67.31740236200005, -15.037749381999955], [-67.31807688900005, -15.039053744999922], [-67.31809651100008, -15.04002695799994], [-67.3183078670001, -15.041741025999947], [-67.31809878600006, -15.043062211999924], [-67.31812649600005, -15.044436157999934], [-67.31838407300006, -15.045519375999948], [-67.31898702900008, -15.04619512599992], [-67.31999426900006, -15.046462281999922], [-67.32162524800009, -15.045514879999917], [-67.32332204000005, -15.043936250999929], [-67.3238908960001, -15.042923188999957], [-67.32500263000009, -15.042042943999935], [-67.32654266800006, -15.040486382999962], [-67.32778622000006, -15.038840026999925], [-67.32858181800007, -15.037870357999955], [-67.32941247100005, -15.037663604999963], [-67.33010743000004, -15.03803213199995], [-67.33086305500007, -15.038972183999931], [-67.33157249200008, -15.040056288999947], [-67.33227711200009, -15.040901860999947], [-67.33302600100006, -15.041507962999951], [-67.33343030200005, -15.042072923999962], [-67.33359688100005, -15.043024219999944], [-67.33381351700005, -15.04402228199996], [-67.33421975900005, -15.04468264999996], [-67.33495900800006, -15.044811686999932], [-67.33558268700006, -15.04408390099996], [-67.3358039850001, -15.042886572999969], [-67.33587125300004, -15.041358123999936], [-67.33618976100006, -15.040111214999962], [-67.33661031000007, -15.039053248999938], [-67.33772582200008, -15.038363780999918], [-67.33933704000007, -15.03790344499992], [-67.34046123400007, -15.037643314999963], [-67.34149014900008, -15.037528172999933], [-67.34241701800005, -15.03722408699996], [-67.34319275000006, -15.03673199899991], [-67.34356997600007, -15.035961199999972], [-67.34374601200004, -15.03495563699993], [-67.34347446200006, -15.033672304999971], [-67.34261097700004, -15.032257132999964], [-67.34190249700008, -15.03122077599993], [-67.34188219900004, -15.030218969999959], [-67.34245866700006, -15.029587532999916], [-67.34334125000008, -15.029522916999946], [-67.34428258800004, -15.02993440599993], [-67.34514026500004, -15.031063342999966], [-67.34654274100005, -15.032420453999972], [-67.34749667900006, -15.033452084999954], [-67.34805309000005, -15.03425271499997], [-67.34851617500009, -15.035293746999958], [-67.34878194600007, -15.036290837999951], [-67.34895051600006, -15.037337513999937], [-67.34935968300009, -15.03814095999995], [-67.35077837700008, -15.037875131999941], [-67.35208338300008, -15.03684790999994], [-67.35185020800007, -15.03503891299993], [-67.35182404300006, -15.033750893999976], [-67.35281900000007, -15.031966055999922], [-67.35410554900004, -15.030032454999958], [-67.35454020000009, -15.028706963999971], [-67.35473716500006, -15.026317042999937], [-67.35455018100008, -15.024363993999932], [-67.35446912500008, -15.022790695999946], [-67.35478849000008, -15.021591498999944], [-67.35595389500007, -15.020948743999956], [-67.35718097500003, -15.020925195999947], [-67.35832540000004, -15.02166678999992], [-67.35898481800004, -15.022704025999921], [-67.35901003400004, -15.02394432799996], [-67.35903622200007, -15.025232334999929], [-67.35955519600006, -15.026606320999962], [-67.36002800600004, -15.02812435799995], [-67.36009941200004, -15.029220603999924], [-67.36017373200006, -15.030459960999947], [-67.36039142800004, -15.031505672999964], [-67.36070341500002, -15.032358680999934], [-67.36145329100007, -15.033012379999937], [-67.36233974700005, -15.033138501999925], [-67.36277374600004, -15.032748376999958], [-67.36295260300002, -15.031885934999922], [-67.36434692900005, -15.030427446999957], [-67.36574706500002, -15.029255177999968], [-67.36759185900004, -15.02821751099998], [-67.36969858400002, -15.027986062999945], [-67.37157350200002, -15.028427168999936], [-67.37225678400003, -15.028223116999973], [-67.37344754500006, -15.027140745999922], [-67.37410648500006, -15.025744115999935], [-67.37471633400007, -15.024348430999954], [-67.37548121300003, -15.02333153199992], [-67.37615668400005, -15.022745850999957], [-67.37667809000008, -15.02182908699995], [-67.37704348200006, -15.020485835999972], [-67.37720086300007, -15.018573938999955], [-67.37711673600003, -15.016857583999977], [-67.37714148100005, -15.015664065999937], [-67.37815562300003, -15.014833249999972], [-67.37967906100002, -15.014899317999944], [-67.38057516900004, -15.015502412999972], [-67.38118849100002, -15.016683613999925], [-67.38117448900009, -15.018401853999922], [-67.38154339500004, -15.019635489999922], [-67.38263390600005, -15.020139375999971], [-67.38401793300002, -15.02058986499997], [-67.38504864000008, -15.020569957999951], [-67.38606471100005, -15.019834512999973], [-67.38648790100004, -15.018919635999959], [-67.38685420300007, -15.017624090999952], [-67.38639589500005, -15.016821686999942], [-67.38592588600004, -15.015446853999938], [-67.38566390700007, -15.014640652999955], [-67.38583974800005, -15.013635114999937], [-67.38636206900006, -15.012766047999943], [-67.38753216900002, -15.012361678999973], [-67.38860703300006, -15.012102307999953], [-67.38962500700005, -15.011462264999965], [-67.39034947700006, -15.010875611999944], [-67.39229700000007, -15.010074429999968], [-67.39494038800002, -15.00968925799998], [-67.39611142200002, -15.009332554999954], [-67.39668667600002, -15.008653334999956], [-67.39695866500001, -15.007550498999926], [-67.39800956400002, -15.00468601899996], [-67.39965882400004, -15.001313667999963], [-67.40078678800003, -14.99885809299996], [-67.40113247100007, -14.99656082599995], [-67.40100304700003, -14.995036281999935], [-67.40013849500005, -14.993573683999946], [-67.39869972000004, -14.992837994999942], [-67.39717451800006, -14.992676611999965], [-67.39554921600003, -14.992421709999965], [-67.39416928600005, -14.992162055999916], [-67.39316439500008, -14.99103617399993], [-67.39303601600002, -14.989559308999947], [-67.39379681300004, -14.988351595999962], [-67.39491476900004, -14.987805068999927], [-67.39672852000004, -14.987674577999933], [-67.398154563, -14.987790169999972], [-67.39973270700001, -14.988141412999935], [-67.401129213, -14.989211962999944], [-67.40194076300004, -14.990484704999965], [-67.40265515500002, -14.991807042999936], [-67.40282779000003, -14.993044425999916], [-67.40328998500003, -14.99403759999995], [-67.40457666500006, -14.99453759999994], [-67.40566118400002, -14.994755187999935], [-67.40658380600004, -14.994260108999978], [-67.40715899100005, -14.993580880999943], [-67.40802665700002, -14.992800543999964], [-67.40904936500006, -14.99239895699997], [-67.41052449800004, -14.992513509999974], [-67.41181117400006, -14.993013466999965], [-67.41265031600001, -14.993235782999927], [-67.41362492000005, -14.992882829999918], [-67.41472713600002, -14.99157300699994], [-67.41558495700005, -14.99031564499995], [-67.41639663900006, -14.989202336999925], [-67.41652327000004, -14.988197768999951], [-67.41660376900003, -14.987337255999934], [-67.41579314500004, -14.98611228699996], [-67.41474795100005, -14.985416780999966], [-67.41334555400007, -14.984060122999944], [-67.41268941900003, -14.983185263999927], [-67.41159028400001, -14.982252182999947], [-67.41097892800003, -14.98116648099994], [-67.41071302700006, -14.98016951999995], [-67.41053842400005, -14.978836748999983], [-67.41071122500003, -14.977688125999967], [-67.41044337900004, -14.976595760999933], [-67.41002441800006, -14.975315442999939], [-67.40916579800002, -14.974139078999933], [-67.40812264000006, -14.973538921999927], [-67.40722571900002, -14.972888206999919], [-67.40661442100004, -14.971802478999958], [-67.40702184500006, -14.97012439299993], [-67.40793167000005, -14.969009223999937], [-67.40904753000002, -14.968367262999942], [-67.41041947000004, -14.968245256999971], [-67.411601981, -14.968460950999932], [-67.41293854300001, -14.969007689999952], [-67.41422995500001, -14.969746173999955], [-67.41646639100006, -14.97108667499997], [-67.41740357500005, -14.971307090999966], [-67.41838493200007, -14.971288048999952], [-67.419209288, -14.970794857999978], [-67.41947528300003, -14.969405834999971], [-67.419842352, -14.968158009999964], [-67.42031048900004, -14.967051378999944], [-67.42071878100003, -14.96542099899994], [-67.42069331300004, -14.964180793999962], [-67.41997896600004, -14.962858515999917], [-67.418783766, -14.96202275399998], [-67.41739524600004, -14.96133389099998], [-67.41669169400004, -14.960536299999935], [-67.41676125900003, -14.959141542999916], [-67.41742371000007, -14.957935714999955], [-67.41823041300003, -14.956583930999951], [-67.41815786700002, -14.955440072999968], [-67.41779387600005, -14.954445020999968], [-67.41689311900004, -14.953603526999924], [-67.41604827700004, -14.953094981999982], [-67.41545755600006, -14.953010987999951], [-67.41472648600003, -14.95326374599994], [-67.41413380900003, -14.953084345999967], [-67.41328408700004, -14.952337283999944], [-67.41277391000001, -14.951392766999954], [-67.41265722300001, -14.950488350999931], [-67.41317933700006, -14.949619289999925], [-67.41395555600003, -14.949174785999952], [-67.41517822200002, -14.948960233999959], [-67.41625174100002, -14.948653123999964], [-67.41712411600005, -14.948111311999973], [-67.41804261700005, -14.94742544399997], [-67.41886885300002, -14.947027677999921], [-67.41969802100006, -14.94677301099994], [-67.42062530900002, -14.946516438999929], [-67.42150157500006, -14.946165415999928], [-67.42242396300004, -14.945670336999958], [-67.42294309000002, -14.944658166999933], [-67.42261740800002, -14.94313746899996], [-67.42156462400007, -14.942060337999969], [-67.42071102800004, -14.941122497999967], [-67.42049366300003, -14.94009597499996], [-67.42056342800007, -14.938710762999955], [-67.42130830100004, -14.936739838999925], [-67.42222087700004, -14.93576776799994], [-67.42254473400007, -14.93480710799996], [-67.42242608100004, -14.933807302999975], [-67.42166771100001, -14.932724456999951], [-67.42057473300004, -14.932077559999973], [-67.41909808500006, -14.931867559999946], [-67.41805808200004, -14.931410499999963], [-67.41755968200002, -14.931038390999952], [-67.41756062500004, -14.930130569999955], [-67.41742055400002, -14.929036865999926], [-67.41798972300003, -14.92807145999995], [-67.41895818600001, -14.927432362999971], [-67.41974408700005, -14.92746486899994], [-67.42071840300005, -14.927111968999947], [-67.42154065600002, -14.926523413999968], [-67.421706595, -14.925040902999962], [-67.42192354600003, -14.923652843999943], [-67.42205117600005, -14.922695986999933], [-67.42262910600007, -14.92215988399994], [-67.42350918800004, -14.921999680999928], [-67.42425773900007, -14.922605527999957], [-67.42456967100004, -14.923458428999927], [-67.42424289400005, -14.924275985999934], [-67.42421883800002, -14.92555877799997], [-67.42433790100003, -14.926516941999967], [-67.42498249000002, -14.926838482999921], [-67.42625797800004, -14.926813757999982], [-67.42698405200005, -14.926322489999954], [-67.42771110000004, -14.925878920999931], [-67.42837538900002, -14.924768502999939], [-67.42864820200006, -14.92371339599998], [-67.42858242400003, -14.922562386999966], [-67.42851018800003, -14.922203445999962], [-67.42770890500006, -14.920968105999973], [-67.42629775400003, -14.919423127999943], [-67.42587189100007, -14.918463640999956], [-67.42534919400005, -14.917293045999934], [-67.42516276200003, -14.915876058999968], [-67.42513034800005, -14.914923105999945], [-67.42500098800004, -14.913774346999958], [-67.42487079300005, -14.91274036999993], [-67.42436569700006, -14.911856861999976], [-67.42360443800005, -14.911028981999943], [-67.42262580700006, -14.91033352099992], [-67.42113429400003, -14.909825830999978], [-67.41971757, -14.90985431799993], [-67.41834103000005, -14.909768286999956], [-67.41706397500003, -14.909529887999945], [-67.41626117000007, -14.909007796999953], [-67.41567602900001, -14.908315030999965], [-67.41554489800002, -14.907414962999946], [-67.41570829900003, -14.906593457999975], [-67.41604846800006, -14.905811436999953], [-67.41668330200005, -14.905088846999943], [-67.41741481500004, -14.904596493999975], [-67.418096457, -14.904467285999935], [-67.41880438200005, -14.904510436999931], [-67.41945217300005, -14.904706219999978], [-67.42002029900006, -14.90503536799997], [-67.42070576400002, -14.905460980999973], [-67.42145276000004, -14.905542656999948], [-67.42206372200005, -14.905393817999927], [-67.42249804800004, -14.905186366999935], [-67.42295511300001, -14.904558188999939], [-67.42333334400003, -14.903948595999958], [-67.42377254100003, -14.903071586999943], [-67.42408745700007, -14.902037802999926], [-67.42423253800003, -14.901024849999933], [-67.42416178200003, -14.899933887999966], [-67.42397160300006, -14.899033415999938], [-67.42419286400003, -14.898365347999967], [-67.42456982800005, -14.897927922999944], [-67.42539868600001, -14.897570128999966], [-67.42626632900006, -14.897289122999949], [-67.42701399400002, -14.897275125999947], [-67.42779892300004, -14.897548349999958], [-67.42820897700003, -14.897972049999956], [-67.42877696400004, -14.898320306999949], [-67.42938637700003, -14.898381878999933], [-67.43001754000001, -14.898156630999944], [-67.43057223300005, -14.89762475799995], [-67.43093020600006, -14.897091535999941], [-67.431229853, -14.896462257999927], [-67.43135925800007, -14.895815695999948], [-67.43149064500003, -14.894650785999934], [-67.43149518700001, -14.894023074999948], [-67.43113262100003, -14.893153708999924], [-67.43079992900007, -14.892404118999933], [-67.43046767100005, -14.891594745999942], [-67.43029061100006, -14.890577186999959], [-67.43023606500005, -14.889620253999954], [-67.43008268800004, -14.88872840499994], [-67.42987143300005, -14.88818889299994], [-67.42950758200006, -14.887498872999966], [-67.42938853500006, -14.886959991999953], [-67.42945455400005, -14.88633270099995], [-67.42955325500004, -14.885436600999972], [-67.42943810500006, -14.884359682999952], [-67.42929027400007, -14.88355157099994], [-67.42892556500006, -14.882981114999952], [-67.42825264200003, -14.882528115999936], [-67.42757768400004, -14.88235609099996], [-67.42668723600003, -14.88223041299994], [-67.42561064300004, -14.882342593999965], [-67.42441328000002, -14.88215501699994], [-67.423311819, -14.881459919999937], [-67.42248610800006, -14.880886284999969], [-67.421754347, -14.880074154999928], [-67.42129985300001, -14.879174253999963], [-67.42106093700002, -14.878216051999967], [-67.42066748300006, -14.877376353999976], [-67.420120796, -14.876475817999953], [-67.41948017000006, -14.875813771999956], [-67.41874756400003, -14.875121197999928], [-67.41807512300001, -14.874608390999976], [-67.41724814500004, -14.87421408699993], [-67.41645146700002, -14.873879772999938], [-67.41571800400007, -14.873306754999927], [-67.41510769900005, -14.872704691999948], [-67.41462469600005, -14.871505660999947], [-67.41437326, -14.870583238999922], [-67.41422811100001, -14.869416432999971], [-67.41401909300006, -14.868578003999971], [-67.41347048800004, -14.867946471999966], [-67.41276975300003, -14.867104640999964], [-67.41194390600005, -14.866560866999967], [-67.41087133000005, -14.86613495099993], [-67.40933755100005, -14.86573572799994], [-67.40807796200002, -14.86566721199995], [-67.40638614600007, -14.865864718999939], [-67.40496982200001, -14.86621358899992], [-67.40395081900007, -14.866864135999942], [-67.40287210400005, -14.867275123999944], [-67.40195056800005, -14.867208924999932], [-67.40124592100003, -14.866905095999972], [-67.40085014200005, -14.866394171999955], [-67.40033266800006, -14.86571500299993], [-67.40012304700005, -14.86496623699997], [-67.40031250400003, -14.864280035999961], [-67.40059371500006, -14.863654258999924], [-67.40108960800004, -14.863089760999966], [-67.40192354900002, -14.86252761499997], [-67.40272565400002, -14.862114704999952], [-67.40398895300002, -14.861675105999941], [-67.40540437000006, -14.861445801999935], [-67.40672386200006, -14.861723991999947], [-67.40841257800005, -14.861944949999945], [-67.40958214000003, -14.86171391599992], [-67.40995573700005, -14.861058871999937], [-67.409775503, -14.860489668999938], [-67.40928642300005, -14.860127573999923], [-67.40845964700006, -14.859715308999965], [-67.40748193500005, -14.858931330999939], [-67.406657667, -14.858178306999944], [-67.40589640300007, -14.857216470999957], [-67.40556472100003, -14.85634729099996], [-67.40492617100003, -14.855416196999945], [-67.40416667800004, -14.854215230999952], [-67.40368223200001, -14.853225419999946], [-67.40347853500005, -14.851669604999922], [-67.40345614700007, -14.850533543999967], [-67.40367749100002, -14.84968614099995], [-67.40393123200003, -14.84861178099992], [-67.40433664400004, -14.84780750499993], [-67.40514175800004, -14.846976108999966], [-67.40588409000004, -14.846323627999935], [-67.40683955600004, -14.845941652999947], [-67.40788633200006, -14.84567987599995], [-67.40905602300003, -14.84541894399995], [-67.40979440600002, -14.845304483999943], [-67.41053410000004, -14.84501067699994], [-67.410940354, -14.844086821999941], [-67.41094537700005, -14.843399331999931], [-67.41076668000001, -14.842620893999928], [-67.41034215200001, -14.841840757999933], [-67.40988667800003, -14.841090296999928], [-67.40933574400006, -14.84078756299993], [-67.40856752100004, -14.84078224699994], [-67.40770470700001, -14.841105087999944], [-67.40705567900002, -14.841608760999966], [-67.40655832200004, -14.84238251499994], [-67.40624380300002, -14.84336678299996], [-67.40590096200006, -14.844022036999936], [-67.40522206900002, -14.844405926999967], [-67.40442332600006, -14.84437049099994], [-67.40378042400003, -14.84403721299997], [-67.40310855000004, -14.843464592999956], [-67.40271565500004, -14.842565093999944], [-67.40269326700005, -14.84142903199995], [-67.40288444400002, -14.84050369899995], [-67.40313444200005, -14.839937481999982], [-67.40369084800001, -14.839492960999957], [-67.40455585300006, -14.838871225999979], [-67.40544983000004, -14.838488826999932], [-67.40683655200003, -14.837960376999947], [-67.408315454, -14.837432555999943], [-67.40936284100005, -14.837081093999922], [-67.40985777200004, -14.836636131999954], [-67.40992468900006, -14.83588928399996], [-67.40976391200003, -14.835182711999941], [-67.40936881600005, -14.834582131999973], [-67.40891161100002, -14.834070798999962], [-67.40841996300006, -14.834067396999949], [-67.40743579600003, -14.834180154999958], [-67.40675846900004, -14.834354817999946], [-67.40561934500002, -14.834645846999935], [-67.40488034000006, -14.834849969999928], [-67.40398594100006, -14.835292148999935], [-67.40278228400005, -14.836001208999962], [-67.40161110300002, -14.83647134799997], [-67.40038131800006, -14.83655247399996], [-67.39955473600006, -14.836128231999954], [-67.39891296400006, -14.835645486999963], [-67.39848673200007, -14.835104458999972], [-67.39827823600005, -14.834206239999949], [-67.39834673200002, -14.83325016499997], [-67.39859827000006, -14.832474716999966], [-67.39903324900004, -14.831826093999938], [-67.39986992200002, -14.83087536199997], [-67.40082466500004, -14.830583077999954], [-67.40214725700007, -14.830412914999945], [-67.40349640900004, -14.830810881999975], [-67.40518663500002, -14.83079271399992], [-67.40635427800007, -14.83080080499996], [-67.40749425300005, -14.83039020599994], [-67.40839124900006, -14.829589319999965], [-67.40842940500002, -14.828573241999942], [-67.40821999700003, -14.827794589999934], [-67.4076715, -14.82716305599995], [-67.40678391900003, -14.82667863299997], [-67.40552499400005, -14.826550344999928], [-67.40408149100004, -14.826450659999967], [-67.40316231700005, -14.826085574999968], [-67.40193456600005, -14.82589769899994], [-67.40092102600002, -14.825830871999916], [-67.39953656900005, -14.826060386999925], [-67.39861323100004, -14.82626320799994], [-67.39756676500005, -14.826495060999946], [-67.39655234400007, -14.826547779999936], [-67.39577422000005, -14.826225498999966], [-67.39510528400005, -14.825264281999976], [-67.39452853200007, -14.824303707999944], [-67.39425926700002, -14.823315385999928], [-67.39408350500005, -14.822148362999936], [-67.39378572200005, -14.820860918999921], [-67.39305337300007, -14.820168286999941], [-67.39219658300007, -14.819684028999975], [-67.39106127900008, -14.819466850999952], [-67.38995383300004, -14.819638461999944], [-67.38905925400005, -14.820110478999927], [-67.38798186500006, -14.820371965999975], [-67.38718454700005, -14.820157135999972], [-67.38669692100005, -14.81961565999995], [-67.38642658900004, -14.81877678599994], [-67.38655591000006, -14.817910818999957], [-67.38705393200004, -14.817047436999921], [-67.38779487500003, -14.816574350999927], [-67.38874956500004, -14.816282112999936], [-67.38985412300005, -14.816499084999974], [-67.39151262100003, -14.816600353999936], [-67.39323191000004, -14.816791710999949], [-67.39519590800005, -14.817134223999963], [-67.39678878700003, -14.817802950999976], [-67.39795657400006, -14.817781187999968], [-67.39900519300004, -14.817250421999969], [-67.39950294700006, -14.816416896999954], [-67.39972702400006, -14.815192869999974], [-67.39952555800002, -14.813338145999973], [-67.39909313100006, -14.81197205099994], [-67.39870227300007, -14.810803532999948], [-67.39830966300006, -14.80987414099996], [-67.39770286400002, -14.808823690999926], [-67.39740375100004, -14.807715594999932], [-67.39747354700003, -14.806580172999922], [-67.39720538000003, -14.805442399999936], [-67.39675441300004, -14.80409410899994], [-67.39605502500004, -14.803102795999958], [-67.39553602600003, -14.802650797999936], [-67.39458844400006, -14.801986568999949], [-67.39419366400003, -14.801356079999946], [-67.39398586300004, -14.800368186999947], [-67.39408617400002, -14.799262870999932], [-67.39402930500003, -14.798640714999973], [-67.39372713800007, -14.797951087999929], [-67.39321101700003, -14.797110506999948], [-67.39257487200005, -14.795880488999957], [-67.39258125800004, -14.795013657999956], [-67.39298768800005, -14.794059938999961], [-67.39357558800006, -14.793496081999931], [-67.39440794000004, -14.793113278999952], [-67.39560873200006, -14.792762929999979], [-67.39659183400002, -14.792769767999962], [-67.39732652600006, -14.793133582999928], [-67.39824270200003, -14.793887258999963], [-67.39949507500005, -14.794882403999962], [-67.40016746000006, -14.795365347999956], [-67.40139460100002, -14.795612999999943], [-67.40290153100003, -14.795414196999952], [-67.40413414400005, -14.794914560999926], [-67.40459978500006, -14.794260150999943], [-67.40513080100007, -14.793068127999954], [-67.40529423800004, -14.79172409799997], [-67.40563441700007, -14.790578579999933], [-67.40561155500004, -14.789502293999924], [-67.40543595700005, -14.78830538099993], [-67.40519651700006, -14.787436844999947], [-67.40501482000006, -14.78662596999993], [-67.40527345700005, -14.78531501299994], [-67.40546411300002, -14.784449448999956], [-67.40590053100009, -14.783585583999978], [-67.40609227300004, -14.782570563999968], [-67.40610047300008, -14.781446663999924], [-67.40650703400006, -14.780463019999953], [-67.40743365600007, -14.779781888999926], [-67.40851169600003, -14.779400723999961], [-67.40940236600004, -14.779436756999926], [-67.41029042500004, -14.779831478999935], [-67.41123579900002, -14.78079455099991], [-67.41172298000006, -14.781395755999936], [-67.41258011400005, -14.781820149999929], [-67.41340913800005, -14.781885636999954], [-67.41402615500007, -14.781531167999956], [-67.41439866400006, -14.781001639999939], [-67.41489583200004, -14.780227847999987], [-67.41530148500006, -14.779363749999956], [-67.41601585400005, -14.778292519999978], [-67.41636135800003, -14.777248649999931], [-67.41640312500007, -14.775724411999922], [-67.41622400500002, -14.775005759999939], [-67.41573703900005, -14.774374673999942], [-67.41491237900006, -14.773711375999932], [-67.41365634900002, -14.77322446599992], [-67.41255370600007, -14.772768497999943], [-67.41194453100003, -14.77204688699992], [-67.41158263500002, -14.771117727999975], [-67.411529767, -14.769924961999944], [-67.41181325800002, -14.768973026999953], [-67.41246399700005, -14.76820029399994], [-67.41320731900005, -14.767368410999937], [-67.41349354500002, -14.76602520899996], [-67.41387300500006, -14.764533184999946], [-67.41397578000007, -14.76306915299994], [-67.41434959700004, -14.762354295999952], [-67.41499792200003, -14.761910354999936], [-67.41595169100006, -14.761707647999966], [-67.41680919600005, -14.762072238999957], [-67.41717478200005, -14.76249324099995], [-67.41750640900003, -14.763362399999943], [-67.41774437000007, -14.76444016599993], [-67.41792262500003, -14.765278381999963], [-67.41859453800005, -14.76582105099993], [-67.41923811400002, -14.76603470599997], [-67.41994571900003, -14.765890083999968], [-67.42074807000003, -14.765387394999944], [-67.42182990200004, -14.764468115999927], [-67.42272461400003, -14.763936157999968], [-67.42355853100004, -14.763314102999958], [-67.42424165200005, -14.762302409999961], [-67.42455658300004, -14.761228418999957], [-67.42435189100004, -14.759792170999955], [-67.42383593500001, -14.758921760999945], [-67.42332062900007, -14.757961677999957], [-67.42253408400002, -14.756276337999953], [-67.42135099200007, -14.754205660999954], [-67.42016986200005, -14.75186595799994], [-67.41901019000001, -14.750811783999938], [-67.41769867500003, -14.749517424999963], [-67.41638652900005, -14.748312734999955], [-67.41574949500001, -14.747202340999927], [-67.41569628000003, -14.746066053999975], [-67.41638132000006, -14.744785360999968], [-67.41755498700003, -14.743896613999933], [-67.41875482800005, -14.743635785999965], [-67.41970463300005, -14.74397109699992], [-67.42101720700006, -14.74511598699995], [-67.42162247200005, -14.74637561499997], [-67.42222709600004, -14.747724914999932], [-67.42292818100006, -14.74847701699996], [-67.42387865900005, -14.74872264099997], [-67.42467770900005, -14.748668300999945], [-67.42569177300007, -14.748615421999945], [-67.42678178800006, -14.748252169999933], [-67.42764505800001, -14.74780964899997], [-67.42817216700004, -14.747125697999929], [-67.42854633500005, -14.74635102799993], [-67.42867692000007, -14.74527577199995], [-67.42840562700005, -14.744556500999973], [-67.42761453000004, -14.743504872999946], [-67.42636228300003, -14.742509893999957], [-67.42575119900002, -14.742057343999925], [-67.42523591600005, -14.741097265999935], [-67.42487808000007, -14.739600188999928], [-67.42497688600004, -14.73867418399993], [-67.425540061, -14.737243161999967], [-67.42619086300007, -14.736440482999964], [-67.42702551700002, -14.73569883799996], [-67.42834837800002, -14.735408897999946], [-67.42945366700005, -14.73547618699996], [-67.43117131800001, -14.735816659999957], [-67.43254897900002, -14.736453747999965], [-67.43389529400004, -14.737180295999956], [-67.43489117500005, -14.737085397999973], [-67.43593867500007, -14.736644085999949], [-67.43701837700003, -14.735993736999935], [-67.43773099000006, -14.735131652999929], [-67.43814007700003, -14.733759336999977], [-67.43888424400002, -14.732777887999926], [-67.43956272100003, -14.732393853999952], [-67.44070105600004, -14.732132489999977], [-67.44153246100004, -14.731839158999946], [-67.44199635800007, -14.731393885999973], [-67.44193939200002, -14.730765747999952], [-67.44166615400005, -14.730315513999924], [-67.44124232300007, -14.729445760999964], [-67.44115910800004, -14.728189693999974], [-67.44147325300004, -14.72720533799997], [-67.44200217600003, -14.72625231999996], [-67.44289922800006, -14.72536156199993], [-67.44398182300002, -14.724292688999975], [-67.44543423200004, -14.723046933999964], [-67.446854009, -14.722069986999939], [-67.448178252, -14.721570680999946], [-67.44928560000001, -14.721338951999932], [-67.45023896100004, -14.721165973999966], [-67.45128846200004, -14.720600240999937], [-67.452644878, -14.719891869999964], [-67.45412623900002, -14.71888539199995], [-67.45579186300002, -14.717880129999962], [-67.45684238600002, -14.716990333999941], [-67.460550077, -14.713846309999951], [-67.461478135, -14.712895886999942], [-67.46253196200001, -14.71152778699996], [-67.46414401600003, -14.70938615499994], [-67.46488902700003, -14.708255140999933], [-67.46652210500004, -14.705763731999978], [-67.46698373700004, -14.705011672999941], [-67.46725751500004, -14.70460988599995], [-67.46750295000005, -14.704181880999949], [-67.46767680600004, -14.703792446999953], [-67.468384765, -14.70248218199992], [-67.46897771900001, -14.70130135599993], [-67.46935249700005, -14.700730977999967], [-67.46961127600002, -14.700433248999955], [-67.46985543200003, -14.700187491999941], [-67.47019283200001, -14.699948823999932], [-67.47066471300002, -14.699769663999971], [-67.47107881800002, -14.699694282999927], [-67.47152090500003, -14.699697194999937], [-67.47209098400005, -14.699753031999931], [-67.47333203300003, -14.699709122999936], [-67.47480127300004, -14.699666707999937], [-67.47628612000001, -14.699429098999929], [-67.47727308900001, -14.69900594999995], [-67.47826132700004, -14.698400523999966], [-67.479034474, -14.697962939999968], [-67.479464549, -14.697640280999957], [-67.47963757800001, -14.697368006999964], [-67.47978333300001, -14.696913283999946], [-67.479829801, -14.696379797999947], [-67.47964973300003, -14.695610483999925], [-67.479354936, -14.694931545999964], [-67.47649169600005, -14.69031356199997], [-67.47503588800004, -14.688303018999934], [-67.47496728800003, -14.687911985999955], [-67.474968552, -14.687729723999949], [-67.47498452700002, -14.687482470999948], [-67.47510041700004, -14.68722283999994], [-67.47528742200002, -14.686989725999975], [-67.47545989700002, -14.686795570999955], [-67.47573228100005, -14.686589047999965], [-67.47600421600005, -14.68644761699994], [-67.47630430200002, -14.68635845199998], [-67.47668995800002, -14.686269846999947], [-67.47708932500001, -14.686259451999945], [-67.47748879100004, -14.686236030999957], [-67.47868582100001, -14.686361053999972], [-67.48013863400003, -14.686617936999934], [-67.48151890300001, -14.687056607999976], [-67.48268553200002, -14.687454811999935], [-67.48432366800002, -14.688129206999973], [-67.48503417000002, -14.688498379999936], [-67.48554601400004, -14.688723048999973], [-67.48610189700004, -14.688765737999969], [-67.48657257900005, -14.688755782999966], [-67.48710101500002, -14.688642059999951], [-67.48757258200006, -14.688501916999938], [-67.48803025400004, -14.688309608999921], [-67.48924586100004, -14.687809771999973], [-67.49097536300003, -14.687235147999953], [-67.49251876900003, -14.68676345399995], [-67.49282987300002, -14.68673072199993], [-67.49321805300002, -14.686689879999955], [-67.49401342400002, -14.686591512999936], [-67.49471226000003, -14.68658302099992], [-67.49503988500005, -14.68663722499997], [-67.49541020700002, -14.686704720999954], [-67.49572375000002, -14.686732793999969], [-67.49609478199999, -14.686696140999963], [-67.49645182200004, -14.686620333999938], [-67.49720974300004, -14.686312774999973], [-67.497482821, -14.686002075999966], [-67.49780001700003, -14.685496375999945], [-67.49795945300002, -14.685119844999965], [-67.498105429, -14.68462604999996], [-67.498136795, -14.684209635999936], [-67.49799694400002, -14.683805128999946], [-67.49785568000006, -14.683608924999927], [-67.49745812100002, -14.683339921999957], [-67.49661874400006, -14.683048063999932], [-67.49506778599999, -14.682543288999957], [-67.49292185600002, -14.681461774999939], [-67.49104580400001, -14.680538237999933], [-67.490279263, -14.68002550399995], [-67.48966940100003, -14.679539825999935], [-67.48951540400004, -14.67912220799996], [-67.48960336700004, -14.678582857999968], [-67.48986343400004, -14.678089811999936], [-67.49028017400003, -14.677623832999913], [-67.49127033100002, -14.67671890199994], [-67.49221689600002, -14.675930868999954], [-67.49286205000004, -14.675427301999944], [-67.49327717500002, -14.675195640999956], [-67.49354917400002, -14.675041172999952], [-67.49389282400001, -14.674835094999937], [-67.49430776900006, -14.67462947299998], [-67.49466550100006, -14.67444951799995], [-67.49523801700002, -14.674140759999936], [-67.49652580100002, -14.673498134999928], [-67.498027206, -14.672895928999932], [-67.49894149200003, -14.672654467999962], [-67.499556326, -14.672411067999969], [-67.501149842, -14.671700817999971], [-67.50153537800001, -14.671625191999963], [-67.50183534800004, -14.671549003999925], [-67.50212071000004, -14.671524804999928], [-67.502363295, -14.671500327999988], [-67.50263492900001, -14.67139792599993], [-67.50286395800002, -14.671269207999952], [-67.50317926000001, -14.67103688399993], [-67.50333752400002, -14.670829598999946], [-67.50352448699998, -14.670596447999962], [-67.50379939300001, -14.670012349999967], [-67.50404427200004, -14.669649379999948], [-67.50453314399999, -14.669053631999923], [-67.505408691, -14.668212999999973], [-67.506988137, -14.66660873499995], [-67.50916976699999, -14.664232336999925], [-67.51070645499998, -14.662614750999976], [-67.51237952900004, -14.660330776999956], [-67.51309231300002, -14.659300286999947], [-67.513956543, -14.657793010999956], [-67.51422201299998, -14.65648624499994], [-67.51406104700004, -14.654981461999961], [-67.513473131, -14.653356784999973], [-67.512668844, -14.652101771999977], [-67.51152408900003, -14.650590697999972], [-67.51052700900004, -14.649501714999923], [-67.50974097200003, -14.648715512999956], [-67.50933832399998, -14.64816612099997], [-67.50921646599998, -14.647208402999976], [-67.509271141, -14.646850883999944], [-67.50935072800002, -14.646330446999967], [-67.50984855000002, -14.645454818999946], [-67.51038729700002, -14.644852862999922], [-67.511375025, -14.644273302999972], [-67.51219059600004, -14.643848870999932], [-67.51276960900002, -14.643618225999944], [-67.51332696100002, -14.643426491999943], [-67.51371257599999, -14.643331310999935], [-67.51409766300003, -14.643314236999963], [-67.51461119500004, -14.643278456999948], [-67.51538044, -14.64338101099997], [-67.51663934600003, -14.643818681999967], [-67.51808771000002, -14.644706725999987], [-67.51934308300002, -14.645671646999968], [-67.52013908100001, -14.646731584999936], [-67.52083724499998, -14.64786872199994], [-67.52140656900002, -14.64908316199995], [-67.52187080100002, -14.650023518999946], [-67.52201435699999, -14.650942306999976], [-67.522094932, -14.651684936999974], [-67.52219951500001, -14.65203712599997], [-67.52240697900002, -14.652995384999942], [-67.522638964, -14.653485085999938], [-67.52291517000002, -14.653760252999973], [-67.52336182100004, -14.654134147999958], [-67.52365980100001, -14.65435086399998], [-67.52400147600002, -14.654431143999943], [-67.524386322, -14.654453117999928], [-67.52487836, -14.654436705999956], [-67.52537079800004, -14.654361714999933], [-67.52575615900003, -14.654305568999968], [-67.52620594800004, -14.654210772999928], [-67.52654879800001, -14.65411529999994], [-67.52702063000002, -14.653922986999927], [-67.52747133000003, -14.653691490999961], [-67.52779344300001, -14.653498238999928], [-67.52831208100001, -14.652700810999924], [-67.52878950900003, -14.651668774999958], [-67.52918515399999, -14.650069868999932], [-67.52936497300004, -14.648762532999966], [-67.52931162000003, -14.64714126399997], [-67.52901989400004, -14.645987183999976], [-67.52840554200003, -14.645104478999938], [-67.527661308, -14.644455297999968], [-67.52680911100002, -14.64396167799998], [-67.52572009400001, -14.643700891999961], [-67.52488707399999, -14.643539380999979], [-67.52355941900002, -14.643784852999934], [-67.52265949000002, -14.644033023999953], [-67.521568979, -14.644150175999979], [-67.520672449, -14.643890598999965], [-67.52026886200001, -14.643477909999937], [-67.51999503000002, -14.642851229999964], [-67.51980805400001, -14.64202981199997], [-67.51998477400002, -14.641191180999952], [-67.520245203, -14.640626476999952], [-67.52056927199999, -14.640140308999944], [-67.52082799700003, -14.639829483999957], [-67.521300838, -14.639480959999952], [-67.521580427, -14.63924837999997], [-67.522137902, -14.63903709399994], [-67.522909362, -14.638807639999976], [-67.523573102, -14.638694671999927], [-67.52430114100001, -14.638562584999928], [-67.525071814, -14.638450289999982], [-67.52678242900004, -14.638500173999944], [-67.52783164100003, -14.638311516999975], [-67.528775089, -14.637946419999931], [-67.52905440900001, -14.637752892999961], [-67.529270344, -14.637441785999956], [-67.52940048399999, -14.63716919399996], [-67.52959686100002, -14.636584558999969], [-67.52975240900001, -14.635706716999946], [-67.52956831300003, -14.633536029999954], [-67.529424859, -14.632597710999955], [-67.52855781900001, -14.631127527999986], [-67.52747602300002, -14.62979269599998], [-67.526329175, -14.628594152999938], [-67.52594724900001, -14.628142563999969], [-67.525714616, -14.627750497999944], [-67.52565281, -14.627398579999973], [-67.52565528600002, -14.627027535999959], [-67.52565802200002, -14.62661743699993], [-67.52566141100004, -14.626109696999947], [-67.52579272100002, -14.625661354999973], [-67.52596666300002, -14.625232804999937], [-67.526163165, -14.624628638999972], [-67.52625248000004, -14.624062842999933], [-67.52627724300004, -14.623555236999943], [-67.52628805200004, -14.621934370999952], [-67.52601678000002, -14.617534535999932], [-67.52605482900003, -14.615035009999923], [-67.527078205, -14.612287825999937], [-67.52804981400004, -14.610887847999937], [-67.52895634500004, -14.60962414899995], [-67.531421416, -14.607659420999937], [-67.53344306500003, -14.605914485999962], [-67.534840965, -14.604712434999952], [-67.53574563000001, -14.60372210699995], [-67.53675261300002, -14.602212447999928], [-67.53719490000003, -14.600809101999973], [-67.537410238, -14.599463601999954], [-67.53842671900003, -14.596227266999954], [-67.53762744300002, -14.593093766999965], [-67.533260864, -14.591604214999958], [-67.52756291700001, -14.589696694999926], [-67.52330529100004, -14.586343955999945], [-67.522247563, -14.584933054999969], [-67.52053255000004, -14.582428271999953], [-67.52015394099998, -14.57995901699996], [-67.52056253300003, -14.577976131999943], [-67.52190985399999, -14.573532394999969], [-67.52012276700003, -14.570860398999972], [-67.51436765599999, -14.56867082799993], [-67.51049137, -14.56720195899992], [-67.50405543700002, -14.564392858999947], [-67.502238337, -14.563366910999937], [-67.50103717000003, -14.562688710999964], [-67.49940248400003, -14.560933312999952], [-67.499153816, -14.558765721999977], [-67.49995605000004, -14.55702609099994], [-67.50010089700004, -14.555101713999932], [-67.50006209899999, -14.55113048399994], [-67.49858052100002, -14.548338347999952], [-67.49821040300004, -14.544665822999931], [-67.49889111800002, -14.541421246999963], [-67.49909934800002, -14.539858271999933], [-67.49767553000004, -14.536178911999967], [-67.49731033300004, -14.531784409999947], [-67.49674881700004, -14.52720814499998], [-67.49671901700005, -14.522304098999937], [-67.49429531700004, -14.51572985899997], [-67.491976003, -14.51288744799996], [-67.48967295599999, -14.512631846999959], [-67.48790165500004, -14.511657673999943], [-67.48586697500004, -14.510681776999935], [-67.483250006, -14.508197920999974], [-67.481606334, -14.503655012999955], [-67.481569852, -14.503554179999973], [-67.48232761600002, -14.498685665999968], [-67.48319432300003, -14.497126996999954], [-67.48366348600003, -14.495926727999962], [-67.48512399100002, -14.494191412999939], [-67.48716963800003, -14.49354288499995], [-67.49119179600002, -14.492726649999955], [-67.49618845800002, -14.493841957999948], [-67.49914486000002, -14.494823697999951], [-67.500787263, -14.495375787999928], [-67.50178193500001, -14.495274428999943], [-67.504674883, -14.494979607999927], [-67.50751062200004, -14.49433597899997], [-67.50916564500001, -14.493022913999924], [-67.50977039400004, -14.491221777999952], [-67.50983826000005, -14.490921378999927], [-67.512081776, -14.486230591999963], [-67.51444278299999, -14.477822270999967], [-67.516844031, -14.473204711999923], [-67.522403704, -14.46884781899996], [-67.52761638100003, -14.467135934999925], [-67.5294172, -14.462188720999963], [-67.53103539099999, -14.458686342999954], [-67.53092532800002, -14.455074147999941], [-67.53198902000001, -14.45308430499994], [-67.533945303, -14.45007755599994], [-67.53448541, -14.447741104999983], [-67.534014093, -14.44442216899994], [-67.53299505199999, -14.440891913999959], [-67.53210045100002, -14.436614914999952], [-67.53124451900003, -14.430619461999983], [-67.53158552299999, -14.425703151999917], [-67.532212345, -14.420394862999954], [-67.53287974300002, -14.417089775999953], [-67.53645047000002, -14.415732787999957], [-67.53998517400004, -14.416222955999954], [-67.54438938999998, -14.41613805499998], [-67.54966476300001, -14.414694065999972], [-67.55256951000001, -14.41338835699997], [-67.55715922799997, -14.410700176999962], [-67.55858888, -14.408852719999961], [-67.55966343300003, -14.405550082999971], [-67.55961553200001, -14.402782030999964], [-67.55799231399999, -14.399342434999946], [-67.55248679999998, -14.395758547999954], [-67.54567475900001, -14.392806228999971], [-67.542644704, -14.390454303999949], [-67.54169908400002, -14.38605902999995], [-67.54355724300001, -14.381132677999968], [-67.54704894700001, -14.378321975999924], [-67.55456970800003, -14.375075755999942], [-67.55746169000003, -14.372872925999951], [-67.55812779800004, -14.369520214999962], [-67.55464746300004, -14.36684384999995], [-67.541986699, -14.363986121999975], [-67.53796650200002, -14.36021027499993], [-67.536247811, -14.353681622999934], [-67.53634557600003, -14.34880862299997], [-67.537882636, -14.34520810099997], [-67.54032983600001, -14.343297929999943], [-67.51377469200004, -14.346991315999947], [-67.51218551700003, -14.347530814999965], [-67.51137699500003, -14.347673374999946], [-67.50951623500005, -14.348178387999956], [-67.50640083900005, -14.349118385999933], [-67.50320368000003, -14.350205439999959], [-67.50207114900003, -14.350493550999936], [-67.50093910900002, -14.350707844999931], [-67.49972435200006, -14.351216861999935], [-67.498630472, -14.351763543999933], [-67.49798098800001, -14.352276117999969], [-67.49716826700002, -14.353046007999977], [-67.496315912, -14.35370492799996], [-67.49546354200005, -14.354363832999969], [-67.49481453700004, -14.35480259399998], [-67.49420763100001, -14.354983275999917], [-67.49363987600003, -14.35534873799997], [-67.492948507, -14.356082476999966], [-67.49258140800005, -14.356633731999976], [-67.49184694900005, -14.357773161999939], [-67.48940260700005, -14.358436137999941], [-67.42558375000009, -14.378072859999964], [-67.35419471400007, -14.379658791999917], [-67.35349603800006, -14.382242628999954], [-67.3527605110001, -14.384715186999925], [-67.35207771800009, -14.38512463399996], [-67.3507136450001, -14.385736426999923]]]}}]}